{"type":"FeatureCollection","features":[{"type":"Feature","properties":{"cell_id":"belfast_06_11","year":2023,"metric":"traffic","value":0.687,"label":"Traffic"},"geometry":{"type":"Point","coordinates":[-5.923182,54.603572]}},{"type":"Feature","properties":{"cell_id":"belfast_06_10","year":2023,"metric":"traffic","value":0.681,"label":"Traffic"},"geometry":{"type":"Point","coordinates":[-5.936818,54.603572]}},{"type":"Feature","properties":{"cell_id":"belfast_05_11","year":2023,"metric":"traffic","value":0.669,"label":"Traffic"},"geometry":{"type":"Point","coordinates":[-5.923182,54.590715]}},{"type":"Feature","properties":{"cell_id":"belfast_05_10","year":2023,"metric":"traffic","value":0.665,"label":"Traffic"},"geometry":{"type":"Point","coordinates":[-5.936818,54.590715]}},{"type":"Feature","properties":{"cell_id":"belfast_06_12","year":2023,"metric":"traffic","value":0.659,"label":"Traffic"},"geometry":{"type":"Point","coordinates":[-5.909546,54.603572]}},{"type":"Feature","properties":{"cell_id":"belfast_05_12","year":2023,"metric":"traffic","value":0.644,"label":"Traffic"},"geometry":{"type":"Point","coordinates":[-5.909546,54.590715]}},{"type":"Feature","properties":{"cell_id":"belfast_06_13","year":2023,"metric":"traffic","value":0.63,"label":"Traffic"},"geometry":{"type":"Point","coordinates":[-5.895909,54.603572]}},{"type":"Feature","properties":{"cell_id":"belfast_06_11","year":2023,"metric":"jobs","value":0.859,"label":"Jobs"},"geometry":{"type":"Point","coordinates":[-5.923182,54.603572]}},{"type":"Feature","properties":{"cell_id":"belfast_06_10","year":2023,"metric":"jobs","value":0.808,"label":"Jobs"},"geometry":{"type":"Point","coordinates":[-5.936818,54.603572]}},{"type":"Feature","properties":{"cell_id":"belfast_05_11","year":2023,"metric":"jobs","value":0.807,"label":"Jobs"},"geometry":{"type":"Point","coordinates":[-5.923182,54.590715]}},{"type":"Feature","properties":{"cell_id":"belfast_05_10","year":2023,"metric":"jobs","value":0.801,"label":"Jobs"},"geometry":{"type":"Point","coordinates":[-5.936818,54.590715]}},{"type":"Feature","properties":{"cell_id":"belfast_06_12","year":2023,"metric":"jobs","value":0.798,"label":"Jobs"},"geometry":{"type":"Point","coordinates":[-5.909546,54.603572]}},{"type":"Feature","properties":{"cell_id":"belfast_05_12","year":2023,"metric":"jobs","value":0.772,"label":"Jobs"},"geometry":{"type":"Point","coordinates":[-5.909546,54.590715]}},{"type":"Feature","properties":{"cell_id":"belfast_05_09","year":2023,"metric":"jobs","value":0.742,"label":"Jobs"},"geometry":{"type":"Point","coordinates":[-5.950455,54.590715]}},{"type":"Feature","properties":{"cell_id":"belfast_06_11","year":2023,"metric":"electricity","value":0.923,"label":"Electricity"},"geometry":{"type":"Point","coordinates":[-5.923182,54.603572]}},{"type":"Feature","properties":{"cell_id":"belfast_06_10","year":2023,"metric":"electricity","value":0.902,"label":"Electricity"},"geometry":{"type":"Point","coordinates":[-5.936818,54.603572]}},{"type":"Feature","properties":{"cell_id":"belfast_05_11","year":2023,"metric":"electricity","value":0.894,"label":"Electricity"},"geometry":{"type":"Point","coordinates":[-5.923182,54.590715]}},{"type":"Feature","properties":{"cell_id":"belfast_06_12","year":2023,"metric":"electricity","value":0.885,"label":"Electricity"},"geometry":{"type":"Point","coordinates":[-5.909546,54.603572]}},{"type":"Feature","properties":{"cell_id":"belfast_05_10","year":2023,"metric":"electricity","value":0.884,"label":"Electricity"},"geometry":{"type":"Point","coordinates":[-5.936818,54.590715]}},{"type":"Feature","properties":{"cell_id":"belfast_05_12","year":2023,"metric":"electricity","value":0.869,"label":"Electricity"},"geometry":{"type":"Point","coordinates":[-5.909546,54.590715]}},{"type":"Feature","properties":{"cell_id":"belfast_06_13","year":2023,"metric":"electricity","value":0.843,"label":"Electricity"},"geometry":{"type":"Point","coordinates":[-5.895909,54.603572]}},{"type":"Feature","properties":{"cell_id":"belfast_06_11","year":2023,"metric":"buildings","value":0.922,"label":"Buildings"},"geometry":{"type":"Point","coordinates":[-5.923182,54.603572]}},{"type":"Feature","properties":{"cell_id":"belfast_06_10","year":2023,"metric":"buildings","value":0.91,"label":"Buildings"},"geometry":{"type":"Point","coordinates":[-5.936818,54.603572]}},{"type":"Feature","properties":{"cell_id":"belfast_06_12","year":2023,"metric":"buildings","value":0.903,"label":"Buildings"},"geometry":{"type":"Point","coordinates":[-5.909546,54.603572]}},{"type":"Feature","properties":{"cell_id":"belfast_05_11","year":2023,"metric":"buildings","value":0.901,"label":"Buildings"},"geometry":{"type":"Point","coordinates":[-5.923182,54.590715]}},{"type":"Feature","properties":{"cell_id":"belfast_05_10","year":2023,"metric":"buildings","value":0.882,"label":"Buildings"},"geometry":{"type":"Point","coordinates":[-5.936818,54.590715]}},{"type":"Feature","properties":{"cell_id":"belfast_05_12","year":2023,"metric":"buildings","value":0.877,"label":"Buildings"},"geometry":{"type":"Point","coordinates":[-5.909546,54.590715]}},{"type":"Feature","properties":{"cell_id":"belfast_06_13","year":2023,"metric":"buildings","value":0.862,"label":"Buildings"},"geometry":{"type":"Point","coordinates":[-5.895909,54.603572]}},{"type":"Feature","properties":{"cell_id":"belfast_06_11","year":2023,"metric":"services","value":0.828,"label":"Services"},"geometry":{"type":"Point","coordinates":[-5.923182,54.603572]}},{"type":"Feature","properties":{"cell_id":"belfast_06_12","year":2023,"metric":"services","value":0.806,"label":"Services"},"geometry":{"type":"Point","coordinates":[-5.909546,54.603572]}},{"type":"Feature","properties":{"cell_id":"belfast_06_10","year":2023,"metric":"services","value":0.805,"label":"Services"},"geometry":{"type":"Point","coordinates":[-5.936818,54.603572]}},{"type":"Feature","properties":{"cell_id":"belfast_05_11","year":2023,"metric":"services","value":0.8,"label":"Services"},"geometry":{"type":"Point","coordinates":[-5.923182,54.590715]}},{"type":"Feature","properties":{"cell_id":"belfast_05_10","year":2023,"metric":"services","value":0.794,"label":"Services"},"geometry":{"type":"Point","coordinates":[-5.936818,54.590715]}},{"type":"Feature","properties":{"cell_id":"belfast_05_12","year":2023,"metric":"services","value":0.778,"label":"Services"},"geometry":{"type":"Point","coordinates":[-5.909546,54.590715]}},{"type":"Feature","properties":{"cell_id":"belfast_05_09","year":2023,"metric":"services","value":0.77,"label":"Services"},"geometry":{"type":"Point","coordinates":[-5.950455,54.590715]}}]}