{"type":"FeatureCollection","features":[{"type":"Feature","properties":{"cell_id":"belfast_06_11","year":2021,"metric":"population_pressure","value":0.808,"label":"Population Pressure"},"geometry":{"type":"Point","coordinates":[-5.923182,54.603572]}},{"type":"Feature","properties":{"cell_id":"belfast_06_10","year":2021,"metric":"population_pressure","value":0.79,"label":"Population Pressure"},"geometry":{"type":"Point","coordinates":[-5.936818,54.603572]}},{"type":"Feature","properties":{"cell_id":"belfast_06_12","year":2021,"metric":"population_pressure","value":0.787,"label":"Population Pressure"},"geometry":{"type":"Point","coordinates":[-5.909546,54.603572]}},{"type":"Feature","properties":{"cell_id":"belfast_05_11","year":2021,"metric":"population_pressure","value":0.776,"label":"Population Pressure"},"geometry":{"type":"Point","coordinates":[-5.923182,54.590715]}},{"type":"Feature","properties":{"cell_id":"belfast_05_10","year":2021,"metric":"population_pressure","value":0.757,"label":"Population Pressure"},"geometry":{"type":"Point","coordinates":[-5.936818,54.590715]}},{"type":"Feature","properties":{"cell_id":"belfast_05_12","year":2021,"metric":"population_pressure","value":0.752,"label":"Population Pressure"},"geometry":{"type":"Point","coordinates":[-5.909546,54.590715]}},{"type":"Feature","properties":{"cell_id":"belfast_06_13","year":2021,"metric":"population_pressure","value":0.738,"label":"Population Pressure"},"geometry":{"type":"Point","coordinates":[-5.895909,54.603572]}},{"type":"Feature","properties":{"cell_id":"belfast_06_11","year":2021,"metric":"mobility_strain","value":0.598,"label":"Mobility Strain"},"geometry":{"type":"Point","coordinates":[-5.923182,54.603572]}},{"type":"Feature","properties":{"cell_id":"belfast_06_10","year":2021,"metric":"mobility_strain","value":0.597,"label":"Mobility Strain"},"geometry":{"type":"Point","coordinates":[-5.936818,54.603572]}},{"type":"Feature","properties":{"cell_id":"belfast_07_13","year":2021,"metric":"mobility_strain","value":0.594,"label":"Mobility Strain"},"geometry":{"type":"Point","coordinates":[-5.895909,54.616428]}},{"type":"Feature","properties":{"cell_id":"belfast_05_11","year":2021,"metric":"mobility_strain","value":0.593,"label":"Mobility Strain"},"geometry":{"type":"Point","coordinates":[-5.923182,54.590715]}},{"type":"Feature","properties":{"cell_id":"belfast_06_13","year":2021,"metric":"mobility_strain","value":0.592,"label":"Mobility Strain"},"geometry":{"type":"Point","coordinates":[-5.895909,54.603572]}},{"type":"Feature","properties":{"cell_id":"belfast_05_12","year":2021,"metric":"mobility_strain","value":0.589,"label":"Mobility Strain"},"geometry":{"type":"Point","coordinates":[-5.909546,54.590715]}},{"type":"Feature","properties":{"cell_id":"belfast_07_14","year":2021,"metric":"mobility_strain","value":0.588,"label":"Mobility Strain"},"geometry":{"type":"Point","coordinates":[-5.882273,54.616428]}},{"type":"Feature","properties":{"cell_id":"belfast_06_11","year":2021,"metric":"economic_opportunity","value":0.805,"label":"Economic Opportunity"},"geometry":{"type":"Point","coordinates":[-5.923182,54.603572]}},{"type":"Feature","properties":{"cell_id":"belfast_06_12","year":2021,"metric":"economic_opportunity","value":0.756,"label":"Economic Opportunity"},"geometry":{"type":"Point","coordinates":[-5.909546,54.603572]}},{"type":"Feature","properties":{"cell_id":"belfast_06_10","year":2021,"metric":"economic_opportunity","value":0.745,"label":"Economic Opportunity"},"geometry":{"type":"Point","coordinates":[-5.936818,54.603572]}},{"type":"Feature","properties":{"cell_id":"belfast_05_11","year":2021,"metric":"economic_opportunity","value":0.742,"label":"Economic Opportunity"},"geometry":{"type":"Point","coordinates":[-5.923182,54.590715]}},{"type":"Feature","properties":{"cell_id":"belfast_05_10","year":2021,"metric":"economic_opportunity","value":0.74,"label":"Economic Opportunity"},"geometry":{"type":"Point","coordinates":[-5.936818,54.590715]}},{"type":"Feature","properties":{"cell_id":"belfast_05_12","year":2021,"metric":"economic_opportunity","value":0.713,"label":"Economic Opportunity"},"geometry":{"type":"Point","coordinates":[-5.909546,54.590715]}},{"type":"Feature","properties":{"cell_id":"belfast_06_13","year":2021,"metric":"economic_opportunity","value":0.708,"label":"Economic Opportunity"},"geometry":{"type":"Point","coordinates":[-5.895909,54.603572]}},{"type":"Feature","properties":{"cell_id":"belfast_06_11","year":2021,"metric":"environmental_exposure","value":0.616,"label":"Environmental Exposure"},"geometry":{"type":"Point","coordinates":[-5.923182,54.603572]}},{"type":"Feature","properties":{"cell_id":"belfast_05_11","year":2021,"metric":"environmental_exposure","value":0.586,"label":"Environmental Exposure"},"geometry":{"type":"Point","coordinates":[-5.923182,54.590715]}},{"type":"Feature","properties":{"cell_id":"belfast_06_10","year":2021,"metric":"environmental_exposure","value":0.538,"label":"Environmental Exposure"},"geometry":{"type":"Point","coordinates":[-5.936818,54.603572]}},{"type":"Feature","properties":{"cell_id":"belfast_05_10","year":2021,"metric":"environmental_exposure","value":0.528,"label":"Environmental Exposure"},"geometry":{"type":"Point","coordinates":[-5.936818,54.590715]}},{"type":"Feature","properties":{"cell_id":"belfast_06_12","year":2021,"metric":"environmental_exposure","value":0.515,"label":"Environmental Exposure"},"geometry":{"type":"Point","coordinates":[-5.909546,54.603572]}},{"type":"Feature","properties":{"cell_id":"belfast_03_12","year":2021,"metric":"environmental_exposure","value":0.469,"label":"Environmental Exposure"},"geometry":{"type":"Point","coordinates":[-5.909546,54.564999]}},{"type":"Feature","properties":{"cell_id":"belfast_05_12","year":2021,"metric":"environmental_exposure","value":0.464,"label":"Environmental Exposure"},"geometry":{"type":"Point","coordinates":[-5.909546,54.590715]}},{"type":"Feature","properties":{"cell_id":"belfast_06_11","year":2021,"metric":"fairness_score","value":0.525,"label":"Fairness Score"},"geometry":{"type":"Point","coordinates":[-5.923182,54.603572]}},{"type":"Feature","properties":{"cell_id":"belfast_05_11","year":2021,"metric":"fairness_score","value":0.52,"label":"Fairness Score"},"geometry":{"type":"Point","coordinates":[-5.923182,54.590715]}},{"type":"Feature","properties":{"cell_id":"belfast_06_12","year":2021,"metric":"fairness_score","value":0.52,"label":"Fairness Score"},"geometry":{"type":"Point","coordinates":[-5.909546,54.603572]}},{"type":"Feature","properties":{"cell_id":"belfast_05_12","year":2021,"metric":"fairness_score","value":0.519,"label":"Fairness Score"},"geometry":{"type":"Point","coordinates":[-5.909546,54.590715]}},{"type":"Feature","properties":{"cell_id":"belfast_05_09","year":2021,"metric":"fairness_score","value":0.517,"label":"Fairness Score"},"geometry":{"type":"Point","coordinates":[-5.950455,54.590715]}},{"type":"Feature","properties":{"cell_id":"belfast_05_10","year":2021,"metric":"fairness_score","value":0.515,"label":"Fairness Score"},"geometry":{"type":"Point","coordinates":[-5.936818,54.590715]}},{"type":"Feature","properties":{"cell_id":"belfast_06_10","year":2021,"metric":"fairness_score","value":0.503,"label":"Fairness Score"},"geometry":{"type":"Point","coordinates":[-5.936818,54.603572]}}]}