{"type":"FeatureCollection","features":[{"type":"Feature","properties":{"cell_id":"belfast_06_11","year":2025,"metric":"population_pressure","value":0.922,"label":"Population Pressure"},"geometry":{"type":"Point","coordinates":[-5.923182,54.603572]}},{"type":"Feature","properties":{"cell_id":"belfast_05_11","year":2025,"metric":"population_pressure","value":0.919,"label":"Population Pressure"},"geometry":{"type":"Point","coordinates":[-5.923182,54.590715]}},{"type":"Feature","properties":{"cell_id":"belfast_06_10","year":2025,"metric":"population_pressure","value":0.916,"label":"Population Pressure"},"geometry":{"type":"Point","coordinates":[-5.936818,54.603572]}},{"type":"Feature","properties":{"cell_id":"belfast_05_10","year":2025,"metric":"population_pressure","value":0.915,"label":"Population Pressure"},"geometry":{"type":"Point","coordinates":[-5.936818,54.590715]}},{"type":"Feature","properties":{"cell_id":"belfast_06_12","year":2025,"metric":"population_pressure","value":0.897,"label":"Population Pressure"},"geometry":{"type":"Point","coordinates":[-5.909546,54.603572]}},{"type":"Feature","properties":{"cell_id":"belfast_05_12","year":2025,"metric":"population_pressure","value":0.889,"label":"Population Pressure"},"geometry":{"type":"Point","coordinates":[-5.909546,54.590715]}},{"type":"Feature","properties":{"cell_id":"belfast_06_09","year":2025,"metric":"population_pressure","value":0.865,"label":"Population Pressure"},"geometry":{"type":"Point","coordinates":[-5.950455,54.603572]}},{"type":"Feature","properties":{"cell_id":"belfast_07_13","year":2025,"metric":"mobility_strain","value":0.622,"label":"Mobility Strain"},"geometry":{"type":"Point","coordinates":[-5.895909,54.616428]}},{"type":"Feature","properties":{"cell_id":"belfast_07_14","year":2025,"metric":"mobility_strain","value":0.616,"label":"Mobility Strain"},"geometry":{"type":"Point","coordinates":[-5.882273,54.616428]}},{"type":"Feature","properties":{"cell_id":"belfast_07_12","year":2025,"metric":"mobility_strain","value":0.608,"label":"Mobility Strain"},"geometry":{"type":"Point","coordinates":[-5.909546,54.616428]}},{"type":"Feature","properties":{"cell_id":"belfast_06_11","year":2025,"metric":"mobility_strain","value":0.593,"label":"Mobility Strain"},"geometry":{"type":"Point","coordinates":[-5.923182,54.603572]}},{"type":"Feature","properties":{"cell_id":"belfast_08_13","year":2025,"metric":"mobility_strain","value":0.593,"label":"Mobility Strain"},"geometry":{"type":"Point","coordinates":[-5.895909,54.629286]}},{"type":"Feature","properties":{"cell_id":"belfast_08_14","year":2025,"metric":"mobility_strain","value":0.592,"label":"Mobility Strain"},"geometry":{"type":"Point","coordinates":[-5.882273,54.629286]}},{"type":"Feature","properties":{"cell_id":"belfast_07_11","year":2025,"metric":"mobility_strain","value":0.59,"label":"Mobility Strain"},"geometry":{"type":"Point","coordinates":[-5.923182,54.616428]}},{"type":"Feature","properties":{"cell_id":"belfast_06_11","year":2025,"metric":"economic_opportunity","value":0.804,"label":"Economic Opportunity"},"geometry":{"type":"Point","coordinates":[-5.923182,54.603572]}},{"type":"Feature","properties":{"cell_id":"belfast_06_12","year":2025,"metric":"economic_opportunity","value":0.764,"label":"Economic Opportunity"},"geometry":{"type":"Point","coordinates":[-5.909546,54.603572]}},{"type":"Feature","properties":{"cell_id":"belfast_06_10","year":2025,"metric":"economic_opportunity","value":0.76,"label":"Economic Opportunity"},"geometry":{"type":"Point","coordinates":[-5.936818,54.603572]}},{"type":"Feature","properties":{"cell_id":"belfast_05_11","year":2025,"metric":"economic_opportunity","value":0.757,"label":"Economic Opportunity"},"geometry":{"type":"Point","coordinates":[-5.923182,54.590715]}},{"type":"Feature","properties":{"cell_id":"belfast_05_10","year":2025,"metric":"economic_opportunity","value":0.75,"label":"Economic Opportunity"},"geometry":{"type":"Point","coordinates":[-5.936818,54.590715]}},{"type":"Feature","properties":{"cell_id":"belfast_05_12","year":2025,"metric":"economic_opportunity","value":0.733,"label":"Economic Opportunity"},"geometry":{"type":"Point","coordinates":[-5.909546,54.590715]}},{"type":"Feature","properties":{"cell_id":"belfast_05_09","year":2025,"metric":"economic_opportunity","value":0.71,"label":"Economic Opportunity"},"geometry":{"type":"Point","coordinates":[-5.950455,54.590715]}},{"type":"Feature","properties":{"cell_id":"belfast_06_11","year":2025,"metric":"environmental_exposure","value":0.7,"label":"Environmental Exposure"},"geometry":{"type":"Point","coordinates":[-5.923182,54.603572]}},{"type":"Feature","properties":{"cell_id":"belfast_05_11","year":2025,"metric":"environmental_exposure","value":0.684,"label":"Environmental Exposure"},"geometry":{"type":"Point","coordinates":[-5.923182,54.590715]}},{"type":"Feature","properties":{"cell_id":"belfast_05_10","year":2025,"metric":"environmental_exposure","value":0.665,"label":"Environmental Exposure"},"geometry":{"type":"Point","coordinates":[-5.936818,54.590715]}},{"type":"Feature","properties":{"cell_id":"belfast_06_10","year":2025,"metric":"environmental_exposure","value":0.628,"label":"Environmental Exposure"},"geometry":{"type":"Point","coordinates":[-5.936818,54.603572]}},{"type":"Feature","properties":{"cell_id":"belfast_06_12","year":2025,"metric":"environmental_exposure","value":0.622,"label":"Environmental Exposure"},"geometry":{"type":"Point","coordinates":[-5.909546,54.603572]}},{"type":"Feature","properties":{"cell_id":"belfast_11_13","year":2025,"metric":"environmental_exposure","value":0.605,"label":"Environmental Exposure"},"geometry":{"type":"Point","coordinates":[-5.895909,54.667857]}},{"type":"Feature","properties":{"cell_id":"belfast_05_12","year":2025,"metric":"environmental_exposure","value":0.589,"label":"Environmental Exposure"},"geometry":{"type":"Point","coordinates":[-5.909546,54.590715]}},{"type":"Feature","properties":{"cell_id":"belfast_05_11","year":2025,"metric":"fairness_score","value":0.527,"label":"Fairness Score"},"geometry":{"type":"Point","coordinates":[-5.923182,54.590715]}},{"type":"Feature","properties":{"cell_id":"belfast_05_12","year":2025,"metric":"fairness_score","value":0.527,"label":"Fairness Score"},"geometry":{"type":"Point","coordinates":[-5.909546,54.590715]}},{"type":"Feature","properties":{"cell_id":"belfast_06_11","year":2025,"metric":"fairness_score","value":0.526,"label":"Fairness Score"},"geometry":{"type":"Point","coordinates":[-5.923182,54.603572]}},{"type":"Feature","properties":{"cell_id":"belfast_06_12","year":2025,"metric":"fairness_score","value":0.526,"label":"Fairness Score"},"geometry":{"type":"Point","coordinates":[-5.909546,54.603572]}},{"type":"Feature","properties":{"cell_id":"belfast_05_09","year":2025,"metric":"fairness_score","value":0.517,"label":"Fairness Score"},"geometry":{"type":"Point","coordinates":[-5.950455,54.590715]}},{"type":"Feature","properties":{"cell_id":"belfast_05_10","year":2025,"metric":"fairness_score","value":0.515,"label":"Fairness Score"},"geometry":{"type":"Point","coordinates":[-5.936818,54.590715]}},{"type":"Feature","properties":{"cell_id":"belfast_06_10","year":2025,"metric":"fairness_score","value":0.513,"label":"Fairness Score"},"geometry":{"type":"Point","coordinates":[-5.936818,54.603572]}}]}