{"type":"FeatureCollection","features":[{"type":"Feature","properties":{"cell_id":"belfast_06_11","year":2024,"metric":"population_pressure","value":0.909,"label":"Population Pressure"},"geometry":{"type":"Point","coordinates":[-5.923182,54.603572]}},{"type":"Feature","properties":{"cell_id":"belfast_05_11","year":2024,"metric":"population_pressure","value":0.905,"label":"Population Pressure"},"geometry":{"type":"Point","coordinates":[-5.923182,54.590715]}},{"type":"Feature","properties":{"cell_id":"belfast_06_10","year":2024,"metric":"population_pressure","value":0.903,"label":"Population Pressure"},"geometry":{"type":"Point","coordinates":[-5.936818,54.603572]}},{"type":"Feature","properties":{"cell_id":"belfast_05_10","year":2024,"metric":"population_pressure","value":0.9,"label":"Population Pressure"},"geometry":{"type":"Point","coordinates":[-5.936818,54.590715]}},{"type":"Feature","properties":{"cell_id":"belfast_06_12","year":2024,"metric":"population_pressure","value":0.884,"label":"Population Pressure"},"geometry":{"type":"Point","coordinates":[-5.909546,54.603572]}},{"type":"Feature","properties":{"cell_id":"belfast_05_12","year":2024,"metric":"population_pressure","value":0.876,"label":"Population Pressure"},"geometry":{"type":"Point","coordinates":[-5.909546,54.590715]}},{"type":"Feature","properties":{"cell_id":"belfast_06_13","year":2024,"metric":"population_pressure","value":0.848,"label":"Population Pressure"},"geometry":{"type":"Point","coordinates":[-5.895909,54.603572]}},{"type":"Feature","properties":{"cell_id":"belfast_07_13","year":2024,"metric":"mobility_strain","value":0.605,"label":"Mobility Strain"},"geometry":{"type":"Point","coordinates":[-5.895909,54.616428]}},{"type":"Feature","properties":{"cell_id":"belfast_07_14","year":2024,"metric":"mobility_strain","value":0.6,"label":"Mobility Strain"},"geometry":{"type":"Point","coordinates":[-5.882273,54.616428]}},{"type":"Feature","properties":{"cell_id":"belfast_06_11","year":2024,"metric":"mobility_strain","value":0.594,"label":"Mobility Strain"},"geometry":{"type":"Point","coordinates":[-5.923182,54.603572]}},{"type":"Feature","properties":{"cell_id":"belfast_07_12","year":2024,"metric":"mobility_strain","value":0.593,"label":"Mobility Strain"},"geometry":{"type":"Point","coordinates":[-5.909546,54.616428]}},{"type":"Feature","properties":{"cell_id":"belfast_05_10","year":2024,"metric":"mobility_strain","value":0.589,"label":"Mobility Strain"},"geometry":{"type":"Point","coordinates":[-5.936818,54.590715]}},{"type":"Feature","properties":{"cell_id":"belfast_05_11","year":2024,"metric":"mobility_strain","value":0.585,"label":"Mobility Strain"},"geometry":{"type":"Point","coordinates":[-5.923182,54.590715]}},{"type":"Feature","properties":{"cell_id":"belfast_06_10","year":2024,"metric":"mobility_strain","value":0.582,"label":"Mobility Strain"},"geometry":{"type":"Point","coordinates":[-5.936818,54.603572]}},{"type":"Feature","properties":{"cell_id":"belfast_06_11","year":2024,"metric":"economic_opportunity","value":0.804,"label":"Economic Opportunity"},"geometry":{"type":"Point","coordinates":[-5.923182,54.603572]}},{"type":"Feature","properties":{"cell_id":"belfast_06_12","year":2024,"metric":"economic_opportunity","value":0.763,"label":"Economic Opportunity"},"geometry":{"type":"Point","coordinates":[-5.909546,54.603572]}},{"type":"Feature","properties":{"cell_id":"belfast_06_10","year":2024,"metric":"economic_opportunity","value":0.76,"label":"Economic Opportunity"},"geometry":{"type":"Point","coordinates":[-5.936818,54.603572]}},{"type":"Feature","properties":{"cell_id":"belfast_05_11","year":2024,"metric":"economic_opportunity","value":0.757,"label":"Economic Opportunity"},"geometry":{"type":"Point","coordinates":[-5.923182,54.590715]}},{"type":"Feature","properties":{"cell_id":"belfast_05_10","year":2024,"metric":"economic_opportunity","value":0.75,"label":"Economic Opportunity"},"geometry":{"type":"Point","coordinates":[-5.936818,54.590715]}},{"type":"Feature","properties":{"cell_id":"belfast_05_12","year":2024,"metric":"economic_opportunity","value":0.732,"label":"Economic Opportunity"},"geometry":{"type":"Point","coordinates":[-5.909546,54.590715]}},{"type":"Feature","properties":{"cell_id":"belfast_05_09","year":2024,"metric":"economic_opportunity","value":0.709,"label":"Economic Opportunity"},"geometry":{"type":"Point","coordinates":[-5.950455,54.590715]}},{"type":"Feature","properties":{"cell_id":"belfast_06_11","year":2024,"metric":"environmental_exposure","value":0.453,"label":"Environmental Exposure"},"geometry":{"type":"Point","coordinates":[-5.923182,54.603572]}},{"type":"Feature","properties":{"cell_id":"belfast_05_11","year":2024,"metric":"environmental_exposure","value":0.436,"label":"Environmental Exposure"},"geometry":{"type":"Point","coordinates":[-5.923182,54.590715]}},{"type":"Feature","properties":{"cell_id":"belfast_05_10","year":2024,"metric":"environmental_exposure","value":0.424,"label":"Environmental Exposure"},"geometry":{"type":"Point","coordinates":[-5.936818,54.590715]}},{"type":"Feature","properties":{"cell_id":"belfast_06_10","year":2024,"metric":"environmental_exposure","value":0.387,"label":"Environmental Exposure"},"geometry":{"type":"Point","coordinates":[-5.936818,54.603572]}},{"type":"Feature","properties":{"cell_id":"belfast_06_12","year":2024,"metric":"environmental_exposure","value":0.365,"label":"Environmental Exposure"},"geometry":{"type":"Point","coordinates":[-5.909546,54.603572]}},{"type":"Feature","properties":{"cell_id":"belfast_11_13","year":2024,"metric":"environmental_exposure","value":0.344,"label":"Environmental Exposure"},"geometry":{"type":"Point","coordinates":[-5.895909,54.667857]}},{"type":"Feature","properties":{"cell_id":"belfast_05_12","year":2024,"metric":"environmental_exposure","value":0.333,"label":"Environmental Exposure"},"geometry":{"type":"Point","coordinates":[-5.909546,54.590715]}},{"type":"Feature","properties":{"cell_id":"belfast_05_11","year":2024,"metric":"fairness_score","value":0.527,"label":"Fairness Score"},"geometry":{"type":"Point","coordinates":[-5.923182,54.590715]}},{"type":"Feature","properties":{"cell_id":"belfast_05_12","year":2024,"metric":"fairness_score","value":0.527,"label":"Fairness Score"},"geometry":{"type":"Point","coordinates":[-5.909546,54.590715]}},{"type":"Feature","properties":{"cell_id":"belfast_06_11","year":2024,"metric":"fairness_score","value":0.526,"label":"Fairness Score"},"geometry":{"type":"Point","coordinates":[-5.923182,54.603572]}},{"type":"Feature","properties":{"cell_id":"belfast_06_12","year":2024,"metric":"fairness_score","value":0.526,"label":"Fairness Score"},"geometry":{"type":"Point","coordinates":[-5.909546,54.603572]}},{"type":"Feature","properties":{"cell_id":"belfast_05_09","year":2024,"metric":"fairness_score","value":0.521,"label":"Fairness Score"},"geometry":{"type":"Point","coordinates":[-5.950455,54.590715]}},{"type":"Feature","properties":{"cell_id":"belfast_05_10","year":2024,"metric":"fairness_score","value":0.515,"label":"Fairness Score"},"geometry":{"type":"Point","coordinates":[-5.936818,54.590715]}},{"type":"Feature","properties":{"cell_id":"belfast_06_10","year":2024,"metric":"fairness_score","value":0.512,"label":"Fairness Score"},"geometry":{"type":"Point","coordinates":[-5.936818,54.603572]}}]}