{"type":"FeatureCollection","features":[{"type":"Feature","properties":{"cell_id":"belfast_06_11","year":2022,"metric":"population_pressure","value":0.849,"label":"Population Pressure"},"geometry":{"type":"Point","coordinates":[-5.923182,54.603572]}},{"type":"Feature","properties":{"cell_id":"belfast_06_10","year":2022,"metric":"population_pressure","value":0.837,"label":"Population Pressure"},"geometry":{"type":"Point","coordinates":[-5.936818,54.603572]}},{"type":"Feature","properties":{"cell_id":"belfast_06_12","year":2022,"metric":"population_pressure","value":0.825,"label":"Population Pressure"},"geometry":{"type":"Point","coordinates":[-5.909546,54.603572]}},{"type":"Feature","properties":{"cell_id":"belfast_05_11","year":2022,"metric":"population_pressure","value":0.824,"label":"Population Pressure"},"geometry":{"type":"Point","coordinates":[-5.923182,54.590715]}},{"type":"Feature","properties":{"cell_id":"belfast_05_10","year":2022,"metric":"population_pressure","value":0.804,"label":"Population Pressure"},"geometry":{"type":"Point","coordinates":[-5.936818,54.590715]}},{"type":"Feature","properties":{"cell_id":"belfast_05_12","year":2022,"metric":"population_pressure","value":0.797,"label":"Population Pressure"},"geometry":{"type":"Point","coordinates":[-5.909546,54.590715]}},{"type":"Feature","properties":{"cell_id":"belfast_06_13","year":2022,"metric":"population_pressure","value":0.774,"label":"Population Pressure"},"geometry":{"type":"Point","coordinates":[-5.895909,54.603572]}},{"type":"Feature","properties":{"cell_id":"belfast_08_14","year":2022,"metric":"mobility_strain","value":0.556,"label":"Mobility Strain"},"geometry":{"type":"Point","coordinates":[-5.882273,54.629286]}},{"type":"Feature","properties":{"cell_id":"belfast_07_14","year":2022,"metric":"mobility_strain","value":0.543,"label":"Mobility Strain"},"geometry":{"type":"Point","coordinates":[-5.882273,54.616428]}},{"type":"Feature","properties":{"cell_id":"belfast_07_15","year":2022,"metric":"mobility_strain","value":0.54,"label":"Mobility Strain"},"geometry":{"type":"Point","coordinates":[-5.868637,54.616428]}},{"type":"Feature","properties":{"cell_id":"belfast_08_13","year":2022,"metric":"mobility_strain","value":0.538,"label":"Mobility Strain"},"geometry":{"type":"Point","coordinates":[-5.895909,54.629286]}},{"type":"Feature","properties":{"cell_id":"belfast_08_15","year":2022,"metric":"mobility_strain","value":0.537,"label":"Mobility Strain"},"geometry":{"type":"Point","coordinates":[-5.868637,54.629286]}},{"type":"Feature","properties":{"cell_id":"belfast_07_08","year":2022,"metric":"mobility_strain","value":0.534,"label":"Mobility Strain"},"geometry":{"type":"Point","coordinates":[-5.964091,54.616428]}},{"type":"Feature","properties":{"cell_id":"belfast_07_13","year":2022,"metric":"mobility_strain","value":0.528,"label":"Mobility Strain"},"geometry":{"type":"Point","coordinates":[-5.895909,54.616428]}},{"type":"Feature","properties":{"cell_id":"belfast_06_11","year":2022,"metric":"economic_opportunity","value":0.866,"label":"Economic Opportunity"},"geometry":{"type":"Point","coordinates":[-5.923182,54.603572]}},{"type":"Feature","properties":{"cell_id":"belfast_06_12","year":2022,"metric":"economic_opportunity","value":0.826,"label":"Economic Opportunity"},"geometry":{"type":"Point","coordinates":[-5.909546,54.603572]}},{"type":"Feature","properties":{"cell_id":"belfast_06_10","year":2022,"metric":"economic_opportunity","value":0.822,"label":"Economic Opportunity"},"geometry":{"type":"Point","coordinates":[-5.936818,54.603572]}},{"type":"Feature","properties":{"cell_id":"belfast_05_11","year":2022,"metric":"economic_opportunity","value":0.819,"label":"Economic Opportunity"},"geometry":{"type":"Point","coordinates":[-5.923182,54.590715]}},{"type":"Feature","properties":{"cell_id":"belfast_05_10","year":2022,"metric":"economic_opportunity","value":0.812,"label":"Economic Opportunity"},"geometry":{"type":"Point","coordinates":[-5.936818,54.590715]}},{"type":"Feature","properties":{"cell_id":"belfast_05_12","year":2022,"metric":"economic_opportunity","value":0.795,"label":"Economic Opportunity"},"geometry":{"type":"Point","coordinates":[-5.909546,54.590715]}},{"type":"Feature","properties":{"cell_id":"belfast_05_09","year":2022,"metric":"economic_opportunity","value":0.771,"label":"Economic Opportunity"},"geometry":{"type":"Point","coordinates":[-5.950455,54.590715]}},{"type":"Feature","properties":{"cell_id":"belfast_06_11","year":2022,"metric":"environmental_exposure","value":0.622,"label":"Environmental Exposure"},"geometry":{"type":"Point","coordinates":[-5.923182,54.603572]}},{"type":"Feature","properties":{"cell_id":"belfast_05_11","year":2022,"metric":"environmental_exposure","value":0.602,"label":"Environmental Exposure"},"geometry":{"type":"Point","coordinates":[-5.923182,54.590715]}},{"type":"Feature","properties":{"cell_id":"belfast_05_10","year":2022,"metric":"environmental_exposure","value":0.577,"label":"Environmental Exposure"},"geometry":{"type":"Point","coordinates":[-5.936818,54.590715]}},{"type":"Feature","properties":{"cell_id":"belfast_06_10","year":2022,"metric":"environmental_exposure","value":0.545,"label":"Environmental Exposure"},"geometry":{"type":"Point","coordinates":[-5.936818,54.603572]}},{"type":"Feature","properties":{"cell_id":"belfast_06_12","year":2022,"metric":"environmental_exposure","value":0.529,"label":"Environmental Exposure"},"geometry":{"type":"Point","coordinates":[-5.909546,54.603572]}},{"type":"Feature","properties":{"cell_id":"belfast_11_13","year":2022,"metric":"environmental_exposure","value":0.497,"label":"Environmental Exposure"},"geometry":{"type":"Point","coordinates":[-5.895909,54.667857]}},{"type":"Feature","properties":{"cell_id":"belfast_05_12","year":2022,"metric":"environmental_exposure","value":0.494,"label":"Environmental Exposure"},"geometry":{"type":"Point","coordinates":[-5.909546,54.590715]}},{"type":"Feature","properties":{"cell_id":"belfast_05_11","year":2022,"metric":"fairness_score","value":0.582,"label":"Fairness Score"},"geometry":{"type":"Point","coordinates":[-5.923182,54.590715]}},{"type":"Feature","properties":{"cell_id":"belfast_05_12","year":2022,"metric":"fairness_score","value":0.582,"label":"Fairness Score"},"geometry":{"type":"Point","coordinates":[-5.909546,54.590715]}},{"type":"Feature","properties":{"cell_id":"belfast_05_09","year":2022,"metric":"fairness_score","value":0.578,"label":"Fairness Score"},"geometry":{"type":"Point","coordinates":[-5.950455,54.590715]}},{"type":"Feature","properties":{"cell_id":"belfast_06_11","year":2022,"metric":"fairness_score","value":0.578,"label":"Fairness Score"},"geometry":{"type":"Point","coordinates":[-5.923182,54.603572]}},{"type":"Feature","properties":{"cell_id":"belfast_06_12","year":2022,"metric":"fairness_score","value":0.578,"label":"Fairness Score"},"geometry":{"type":"Point","coordinates":[-5.909546,54.603572]}},{"type":"Feature","properties":{"cell_id":"belfast_05_10","year":2022,"metric":"fairness_score","value":0.572,"label":"Fairness Score"},"geometry":{"type":"Point","coordinates":[-5.936818,54.590715]}},{"type":"Feature","properties":{"cell_id":"belfast_04_11","year":2022,"metric":"fairness_score","value":0.565,"label":"Fairness Score"},"geometry":{"type":"Point","coordinates":[-5.923182,54.577858]}}]}