{"type":"FeatureCollection","features":[{"type":"Feature","properties":{"cell_id":"belfast_06_11","year":2026,"metric":"traffic","value":0.671,"label":"Traffic"},"geometry":{"type":"Point","coordinates":[-5.923182,54.603572]}},{"type":"Feature","properties":{"cell_id":"belfast_06_10","year":2026,"metric":"traffic","value":0.666,"label":"Traffic"},"geometry":{"type":"Point","coordinates":[-5.936818,54.603572]}},{"type":"Feature","properties":{"cell_id":"belfast_05_11","year":2026,"metric":"traffic","value":0.663,"label":"Traffic"},"geometry":{"type":"Point","coordinates":[-5.923182,54.590715]}},{"type":"Feature","properties":{"cell_id":"belfast_05_10","year":2026,"metric":"traffic","value":0.662,"label":"Traffic"},"geometry":{"type":"Point","coordinates":[-5.936818,54.590715]}},{"type":"Feature","properties":{"cell_id":"belfast_06_12","year":2026,"metric":"traffic","value":0.649,"label":"Traffic"},"geometry":{"type":"Point","coordinates":[-5.909546,54.603572]}},{"type":"Feature","properties":{"cell_id":"belfast_05_12","year":2026,"metric":"traffic","value":0.636,"label":"Traffic"},"geometry":{"type":"Point","coordinates":[-5.909546,54.590715]}},{"type":"Feature","properties":{"cell_id":"belfast_06_13","year":2026,"metric":"traffic","value":0.626,"label":"Traffic"},"geometry":{"type":"Point","coordinates":[-5.895909,54.603572]}},{"type":"Feature","properties":{"cell_id":"belfast_06_11","year":2026,"metric":"jobs","value":0.878,"label":"Jobs"},"geometry":{"type":"Point","coordinates":[-5.923182,54.603572]}},{"type":"Feature","properties":{"cell_id":"belfast_06_10","year":2026,"metric":"jobs","value":0.827,"label":"Jobs"},"geometry":{"type":"Point","coordinates":[-5.936818,54.603572]}},{"type":"Feature","properties":{"cell_id":"belfast_05_11","year":2026,"metric":"jobs","value":0.826,"label":"Jobs"},"geometry":{"type":"Point","coordinates":[-5.923182,54.590715]}},{"type":"Feature","properties":{"cell_id":"belfast_05_10","year":2026,"metric":"jobs","value":0.82,"label":"Jobs"},"geometry":{"type":"Point","coordinates":[-5.936818,54.590715]}},{"type":"Feature","properties":{"cell_id":"belfast_06_12","year":2026,"metric":"jobs","value":0.816,"label":"Jobs"},"geometry":{"type":"Point","coordinates":[-5.909546,54.603572]}},{"type":"Feature","properties":{"cell_id":"belfast_05_12","year":2026,"metric":"jobs","value":0.79,"label":"Jobs"},"geometry":{"type":"Point","coordinates":[-5.909546,54.590715]}},{"type":"Feature","properties":{"cell_id":"belfast_05_09","year":2026,"metric":"jobs","value":0.76,"label":"Jobs"},"geometry":{"type":"Point","coordinates":[-5.950455,54.590715]}},{"type":"Feature","properties":{"cell_id":"belfast_06_11","year":2026,"metric":"electricity","value":0.906,"label":"Electricity"},"geometry":{"type":"Point","coordinates":[-5.923182,54.603572]}},{"type":"Feature","properties":{"cell_id":"belfast_05_11","year":2026,"metric":"electricity","value":0.89,"label":"Electricity"},"geometry":{"type":"Point","coordinates":[-5.923182,54.590715]}},{"type":"Feature","properties":{"cell_id":"belfast_06_10","year":2026,"metric":"electricity","value":0.89,"label":"Electricity"},"geometry":{"type":"Point","coordinates":[-5.936818,54.603572]}},{"type":"Feature","properties":{"cell_id":"belfast_05_10","year":2026,"metric":"electricity","value":0.886,"label":"Electricity"},"geometry":{"type":"Point","coordinates":[-5.936818,54.590715]}},{"type":"Feature","properties":{"cell_id":"belfast_06_12","year":2026,"metric":"electricity","value":0.871,"label":"Electricity"},"geometry":{"type":"Point","coordinates":[-5.909546,54.603572]}},{"type":"Feature","properties":{"cell_id":"belfast_05_12","year":2026,"metric":"electricity","value":0.857,"label":"Electricity"},"geometry":{"type":"Point","coordinates":[-5.909546,54.590715]}},{"type":"Feature","properties":{"cell_id":"belfast_06_13","year":2026,"metric":"electricity","value":0.835,"label":"Electricity"},"geometry":{"type":"Point","coordinates":[-5.895909,54.603572]}},{"type":"Feature","properties":{"cell_id":"belfast_05_11","year":2026,"metric":"buildings","value":0.917,"label":"Buildings"},"geometry":{"type":"Point","coordinates":[-5.923182,54.590715]}},{"type":"Feature","properties":{"cell_id":"belfast_06_11","year":2026,"metric":"buildings","value":0.915,"label":"Buildings"},"geometry":{"type":"Point","coordinates":[-5.923182,54.603572]}},{"type":"Feature","properties":{"cell_id":"belfast_06_10","year":2026,"metric":"buildings","value":0.909,"label":"Buildings"},"geometry":{"type":"Point","coordinates":[-5.936818,54.603572]}},{"type":"Feature","properties":{"cell_id":"belfast_05_10","year":2026,"metric":"buildings","value":0.908,"label":"Buildings"},"geometry":{"type":"Point","coordinates":[-5.936818,54.590715]}},{"type":"Feature","properties":{"cell_id":"belfast_06_12","year":2026,"metric":"buildings","value":0.904,"label":"Buildings"},"geometry":{"type":"Point","coordinates":[-5.909546,54.603572]}},{"type":"Feature","properties":{"cell_id":"belfast_05_12","year":2026,"metric":"buildings","value":0.881,"label":"Buildings"},"geometry":{"type":"Point","coordinates":[-5.909546,54.590715]}},{"type":"Feature","properties":{"cell_id":"belfast_06_13","year":2026,"metric":"buildings","value":0.877,"label":"Buildings"},"geometry":{"type":"Point","coordinates":[-5.895909,54.603572]}},{"type":"Feature","properties":{"cell_id":"belfast_06_11","year":2026,"metric":"services","value":0.827,"label":"Services"},"geometry":{"type":"Point","coordinates":[-5.923182,54.603572]}},{"type":"Feature","properties":{"cell_id":"belfast_06_12","year":2026,"metric":"services","value":0.805,"label":"Services"},"geometry":{"type":"Point","coordinates":[-5.909546,54.603572]}},{"type":"Feature","properties":{"cell_id":"belfast_06_10","year":2026,"metric":"services","value":0.804,"label":"Services"},"geometry":{"type":"Point","coordinates":[-5.936818,54.603572]}},{"type":"Feature","properties":{"cell_id":"belfast_05_11","year":2026,"metric":"services","value":0.798,"label":"Services"},"geometry":{"type":"Point","coordinates":[-5.923182,54.590715]}},{"type":"Feature","properties":{"cell_id":"belfast_05_10","year":2026,"metric":"services","value":0.793,"label":"Services"},"geometry":{"type":"Point","coordinates":[-5.936818,54.590715]}},{"type":"Feature","properties":{"cell_id":"belfast_05_12","year":2026,"metric":"services","value":0.776,"label":"Services"},"geometry":{"type":"Point","coordinates":[-5.909546,54.590715]}},{"type":"Feature","properties":{"cell_id":"belfast_05_09","year":2026,"metric":"services","value":0.769,"label":"Services"},"geometry":{"type":"Point","coordinates":[-5.950455,54.590715]}}]}