{"type":"FeatureCollection","features":[{"type":"Feature","properties":{"cell_id":"belfast_06_11","year":2020,"metric":"population_pressure","value":0.763,"label":"Population Pressure"},"geometry":{"type":"Point","coordinates":[-5.923182,54.603572]}},{"type":"Feature","properties":{"cell_id":"belfast_06_12","year":2020,"metric":"population_pressure","value":0.746,"label":"Population Pressure"},"geometry":{"type":"Point","coordinates":[-5.909546,54.603572]}},{"type":"Feature","properties":{"cell_id":"belfast_06_10","year":2020,"metric":"population_pressure","value":0.742,"label":"Population Pressure"},"geometry":{"type":"Point","coordinates":[-5.936818,54.603572]}},{"type":"Feature","properties":{"cell_id":"belfast_05_11","year":2020,"metric":"population_pressure","value":0.727,"label":"Population Pressure"},"geometry":{"type":"Point","coordinates":[-5.923182,54.590715]}},{"type":"Feature","properties":{"cell_id":"belfast_05_10","year":2020,"metric":"population_pressure","value":0.712,"label":"Population Pressure"},"geometry":{"type":"Point","coordinates":[-5.936818,54.590715]}},{"type":"Feature","properties":{"cell_id":"belfast_05_12","year":2020,"metric":"population_pressure","value":0.704,"label":"Population Pressure"},"geometry":{"type":"Point","coordinates":[-5.909546,54.590715]}},{"type":"Feature","properties":{"cell_id":"belfast_06_13","year":2020,"metric":"population_pressure","value":0.701,"label":"Population Pressure"},"geometry":{"type":"Point","coordinates":[-5.895909,54.603572]}},{"type":"Feature","properties":{"cell_id":"belfast_08_14","year":2020,"metric":"mobility_strain","value":0.533,"label":"Mobility Strain"},"geometry":{"type":"Point","coordinates":[-5.882273,54.629286]}},{"type":"Feature","properties":{"cell_id":"belfast_07_14","year":2020,"metric":"mobility_strain","value":0.53,"label":"Mobility Strain"},"geometry":{"type":"Point","coordinates":[-5.882273,54.616428]}},{"type":"Feature","properties":{"cell_id":"belfast_07_13","year":2020,"metric":"mobility_strain","value":0.524,"label":"Mobility Strain"},"geometry":{"type":"Point","coordinates":[-5.895909,54.616428]}},{"type":"Feature","properties":{"cell_id":"belfast_08_13","year":2020,"metric":"mobility_strain","value":0.52,"label":"Mobility Strain"},"geometry":{"type":"Point","coordinates":[-5.895909,54.629286]}},{"type":"Feature","properties":{"cell_id":"belfast_07_15","year":2020,"metric":"mobility_strain","value":0.517,"label":"Mobility Strain"},"geometry":{"type":"Point","coordinates":[-5.868637,54.616428]}},{"type":"Feature","properties":{"cell_id":"belfast_07_08","year":2020,"metric":"mobility_strain","value":0.515,"label":"Mobility Strain"},"geometry":{"type":"Point","coordinates":[-5.964091,54.616428]}},{"type":"Feature","properties":{"cell_id":"belfast_08_15","year":2020,"metric":"mobility_strain","value":0.515,"label":"Mobility Strain"},"geometry":{"type":"Point","coordinates":[-5.868637,54.629286]}},{"type":"Feature","properties":{"cell_id":"belfast_06_11","year":2020,"metric":"economic_opportunity","value":0.846,"label":"Economic Opportunity"},"geometry":{"type":"Point","coordinates":[-5.923182,54.603572]}},{"type":"Feature","properties":{"cell_id":"belfast_06_12","year":2020,"metric":"economic_opportunity","value":0.806,"label":"Economic Opportunity"},"geometry":{"type":"Point","coordinates":[-5.909546,54.603572]}},{"type":"Feature","properties":{"cell_id":"belfast_06_10","year":2020,"metric":"economic_opportunity","value":0.802,"label":"Economic Opportunity"},"geometry":{"type":"Point","coordinates":[-5.936818,54.603572]}},{"type":"Feature","properties":{"cell_id":"belfast_05_11","year":2020,"metric":"economic_opportunity","value":0.799,"label":"Economic Opportunity"},"geometry":{"type":"Point","coordinates":[-5.923182,54.590715]}},{"type":"Feature","properties":{"cell_id":"belfast_05_10","year":2020,"metric":"economic_opportunity","value":0.792,"label":"Economic Opportunity"},"geometry":{"type":"Point","coordinates":[-5.936818,54.590715]}},{"type":"Feature","properties":{"cell_id":"belfast_05_12","year":2020,"metric":"economic_opportunity","value":0.775,"label":"Economic Opportunity"},"geometry":{"type":"Point","coordinates":[-5.909546,54.590715]}},{"type":"Feature","properties":{"cell_id":"belfast_05_09","year":2020,"metric":"economic_opportunity","value":0.752,"label":"Economic Opportunity"},"geometry":{"type":"Point","coordinates":[-5.950455,54.590715]}},{"type":"Feature","properties":{"cell_id":"belfast_06_11","year":2020,"metric":"environmental_exposure","value":0.534,"label":"Environmental Exposure"},"geometry":{"type":"Point","coordinates":[-5.923182,54.603572]}},{"type":"Feature","properties":{"cell_id":"belfast_05_11","year":2020,"metric":"environmental_exposure","value":0.513,"label":"Environmental Exposure"},"geometry":{"type":"Point","coordinates":[-5.923182,54.590715]}},{"type":"Feature","properties":{"cell_id":"belfast_05_10","year":2020,"metric":"environmental_exposure","value":0.482,"label":"Environmental Exposure"},"geometry":{"type":"Point","coordinates":[-5.936818,54.590715]}},{"type":"Feature","properties":{"cell_id":"belfast_06_12","year":2020,"metric":"environmental_exposure","value":0.459,"label":"Environmental Exposure"},"geometry":{"type":"Point","coordinates":[-5.909546,54.603572]}},{"type":"Feature","properties":{"cell_id":"belfast_06_10","year":2020,"metric":"environmental_exposure","value":0.45,"label":"Environmental Exposure"},"geometry":{"type":"Point","coordinates":[-5.936818,54.603572]}},{"type":"Feature","properties":{"cell_id":"belfast_11_13","year":2020,"metric":"environmental_exposure","value":0.445,"label":"Environmental Exposure"},"geometry":{"type":"Point","coordinates":[-5.895909,54.667857]}},{"type":"Feature","properties":{"cell_id":"belfast_05_12","year":2020,"metric":"environmental_exposure","value":0.422,"label":"Environmental Exposure"},"geometry":{"type":"Point","coordinates":[-5.909546,54.590715]}},{"type":"Feature","properties":{"cell_id":"belfast_05_11","year":2020,"metric":"fairness_score","value":0.576,"label":"Fairness Score"},"geometry":{"type":"Point","coordinates":[-5.923182,54.590715]}},{"type":"Feature","properties":{"cell_id":"belfast_05_12","year":2020,"metric":"fairness_score","value":0.575,"label":"Fairness Score"},"geometry":{"type":"Point","coordinates":[-5.909546,54.590715]}},{"type":"Feature","properties":{"cell_id":"belfast_06_11","year":2020,"metric":"fairness_score","value":0.571,"label":"Fairness Score"},"geometry":{"type":"Point","coordinates":[-5.923182,54.603572]}},{"type":"Feature","properties":{"cell_id":"belfast_05_09","year":2020,"metric":"fairness_score","value":0.57,"label":"Fairness Score"},"geometry":{"type":"Point","coordinates":[-5.950455,54.590715]}},{"type":"Feature","properties":{"cell_id":"belfast_06_12","year":2020,"metric":"fairness_score","value":0.57,"label":"Fairness Score"},"geometry":{"type":"Point","coordinates":[-5.909546,54.603572]}},{"type":"Feature","properties":{"cell_id":"belfast_05_10","year":2020,"metric":"fairness_score","value":0.566,"label":"Fairness Score"},"geometry":{"type":"Point","coordinates":[-5.936818,54.590715]}},{"type":"Feature","properties":{"cell_id":"belfast_06_10","year":2020,"metric":"fairness_score","value":0.559,"label":"Fairness Score"},"geometry":{"type":"Point","coordinates":[-5.936818,54.603572]}}]}