{"type":"FeatureCollection","features":[{"type":"Feature","properties":{"cell_id":"belfast_06_11","year":2018,"metric":"population_pressure","value":0.667,"label":"Population Pressure"},"geometry":{"type":"Point","coordinates":[-5.923182,54.603572]}},{"type":"Feature","properties":{"cell_id":"belfast_06_12","year":2018,"metric":"population_pressure","value":0.656,"label":"Population Pressure"},"geometry":{"type":"Point","coordinates":[-5.909546,54.603572]}},{"type":"Feature","properties":{"cell_id":"belfast_06_10","year":2018,"metric":"population_pressure","value":0.645,"label":"Population Pressure"},"geometry":{"type":"Point","coordinates":[-5.936818,54.603572]}},{"type":"Feature","properties":{"cell_id":"belfast_05_11","year":2018,"metric":"population_pressure","value":0.635,"label":"Population Pressure"},"geometry":{"type":"Point","coordinates":[-5.923182,54.590715]}},{"type":"Feature","properties":{"cell_id":"belfast_05_10","year":2018,"metric":"population_pressure","value":0.629,"label":"Population Pressure"},"geometry":{"type":"Point","coordinates":[-5.936818,54.590715]}},{"type":"Feature","properties":{"cell_id":"belfast_06_13","year":2018,"metric":"population_pressure","value":0.621,"label":"Population Pressure"},"geometry":{"type":"Point","coordinates":[-5.895909,54.603572]}},{"type":"Feature","properties":{"cell_id":"belfast_05_12","year":2018,"metric":"population_pressure","value":0.607,"label":"Population Pressure"},"geometry":{"type":"Point","coordinates":[-5.909546,54.590715]}},{"type":"Feature","properties":{"cell_id":"belfast_06_11","year":2018,"metric":"mobility_strain","value":0.59,"label":"Mobility Strain"},"geometry":{"type":"Point","coordinates":[-5.923182,54.603572]}},{"type":"Feature","properties":{"cell_id":"belfast_06_13","year":2018,"metric":"mobility_strain","value":0.586,"label":"Mobility Strain"},"geometry":{"type":"Point","coordinates":[-5.895909,54.603572]}},{"type":"Feature","properties":{"cell_id":"belfast_07_13","year":2018,"metric":"mobility_strain","value":0.586,"label":"Mobility Strain"},"geometry":{"type":"Point","coordinates":[-5.895909,54.616428]}},{"type":"Feature","properties":{"cell_id":"belfast_06_10","year":2018,"metric":"mobility_strain","value":0.584,"label":"Mobility Strain"},"geometry":{"type":"Point","coordinates":[-5.936818,54.603572]}},{"type":"Feature","properties":{"cell_id":"belfast_05_11","year":2018,"metric":"mobility_strain","value":0.579,"label":"Mobility Strain"},"geometry":{"type":"Point","coordinates":[-5.923182,54.590715]}},{"type":"Feature","properties":{"cell_id":"belfast_07_12","year":2018,"metric":"mobility_strain","value":0.579,"label":"Mobility Strain"},"geometry":{"type":"Point","coordinates":[-5.909546,54.616428]}},{"type":"Feature","properties":{"cell_id":"belfast_07_14","year":2018,"metric":"mobility_strain","value":0.575,"label":"Mobility Strain"},"geometry":{"type":"Point","coordinates":[-5.882273,54.616428]}},{"type":"Feature","properties":{"cell_id":"belfast_06_11","year":2018,"metric":"economic_opportunity","value":0.785,"label":"Economic Opportunity"},"geometry":{"type":"Point","coordinates":[-5.923182,54.603572]}},{"type":"Feature","properties":{"cell_id":"belfast_06_12","year":2018,"metric":"economic_opportunity","value":0.737,"label":"Economic Opportunity"},"geometry":{"type":"Point","coordinates":[-5.909546,54.603572]}},{"type":"Feature","properties":{"cell_id":"belfast_06_10","year":2018,"metric":"economic_opportunity","value":0.729,"label":"Economic Opportunity"},"geometry":{"type":"Point","coordinates":[-5.936818,54.603572]}},{"type":"Feature","properties":{"cell_id":"belfast_05_11","year":2018,"metric":"economic_opportunity","value":0.726,"label":"Economic Opportunity"},"geometry":{"type":"Point","coordinates":[-5.923182,54.590715]}},{"type":"Feature","properties":{"cell_id":"belfast_05_10","year":2018,"metric":"economic_opportunity","value":0.721,"label":"Economic Opportunity"},"geometry":{"type":"Point","coordinates":[-5.936818,54.590715]}},{"type":"Feature","properties":{"cell_id":"belfast_05_12","year":2018,"metric":"economic_opportunity","value":0.697,"label":"Economic Opportunity"},"geometry":{"type":"Point","coordinates":[-5.909546,54.590715]}},{"type":"Feature","properties":{"cell_id":"belfast_06_13","year":2018,"metric":"economic_opportunity","value":0.692,"label":"Economic Opportunity"},"geometry":{"type":"Point","coordinates":[-5.895909,54.603572]}},{"type":"Feature","properties":{"cell_id":"belfast_06_11","year":2018,"metric":"environmental_exposure","value":0.579,"label":"Environmental Exposure"},"geometry":{"type":"Point","coordinates":[-5.923182,54.603572]}},{"type":"Feature","properties":{"cell_id":"belfast_05_11","year":2018,"metric":"environmental_exposure","value":0.549,"label":"Environmental Exposure"},"geometry":{"type":"Point","coordinates":[-5.923182,54.590715]}},{"type":"Feature","properties":{"cell_id":"belfast_06_10","year":2018,"metric":"environmental_exposure","value":0.517,"label":"Environmental Exposure"},"geometry":{"type":"Point","coordinates":[-5.936818,54.603572]}},{"type":"Feature","properties":{"cell_id":"belfast_05_10","year":2018,"metric":"environmental_exposure","value":0.51,"label":"Environmental Exposure"},"geometry":{"type":"Point","coordinates":[-5.936818,54.590715]}},{"type":"Feature","properties":{"cell_id":"belfast_06_12","year":2018,"metric":"environmental_exposure","value":0.479,"label":"Environmental Exposure"},"geometry":{"type":"Point","coordinates":[-5.909546,54.603572]}},{"type":"Feature","properties":{"cell_id":"belfast_03_12","year":2018,"metric":"environmental_exposure","value":0.443,"label":"Environmental Exposure"},"geometry":{"type":"Point","coordinates":[-5.909546,54.564999]}},{"type":"Feature","properties":{"cell_id":"belfast_11_13","year":2018,"metric":"environmental_exposure","value":0.431,"label":"Environmental Exposure"},"geometry":{"type":"Point","coordinates":[-5.895909,54.667857]}},{"type":"Feature","properties":{"cell_id":"belfast_06_11","year":2018,"metric":"fairness_score","value":0.521,"label":"Fairness Score"},"geometry":{"type":"Point","coordinates":[-5.923182,54.603572]}},{"type":"Feature","properties":{"cell_id":"belfast_05_11","year":2018,"metric":"fairness_score","value":0.52,"label":"Fairness Score"},"geometry":{"type":"Point","coordinates":[-5.923182,54.590715]}},{"type":"Feature","properties":{"cell_id":"belfast_05_12","year":2018,"metric":"fairness_score","value":0.519,"label":"Fairness Score"},"geometry":{"type":"Point","coordinates":[-5.909546,54.590715]}},{"type":"Feature","properties":{"cell_id":"belfast_06_12","year":2018,"metric":"fairness_score","value":0.517,"label":"Fairness Score"},"geometry":{"type":"Point","coordinates":[-5.909546,54.603572]}},{"type":"Feature","properties":{"cell_id":"belfast_05_09","year":2018,"metric":"fairness_score","value":0.511,"label":"Fairness Score"},"geometry":{"type":"Point","coordinates":[-5.950455,54.590715]}},{"type":"Feature","properties":{"cell_id":"belfast_05_10","year":2018,"metric":"fairness_score","value":0.511,"label":"Fairness Score"},"geometry":{"type":"Point","coordinates":[-5.936818,54.590715]}},{"type":"Feature","properties":{"cell_id":"belfast_06_10","year":2018,"metric":"fairness_score","value":0.503,"label":"Fairness Score"},"geometry":{"type":"Point","coordinates":[-5.936818,54.603572]}}]}