{"type":"FeatureCollection","features":[{"type":"Feature","properties":{"cell_id":"belfast_06_11","year":2016,"metric":"traffic","value":0.551,"label":"Traffic"},"geometry":{"type":"Point","coordinates":[-5.923182,54.603572]}},{"type":"Feature","properties":{"cell_id":"belfast_06_10","year":2016,"metric":"traffic","value":0.539,"label":"Traffic"},"geometry":{"type":"Point","coordinates":[-5.936818,54.603572]}},{"type":"Feature","properties":{"cell_id":"belfast_05_10","year":2016,"metric":"traffic","value":0.538,"label":"Traffic"},"geometry":{"type":"Point","coordinates":[-5.936818,54.590715]}},{"type":"Feature","properties":{"cell_id":"belfast_05_11","year":2016,"metric":"traffic","value":0.533,"label":"Traffic"},"geometry":{"type":"Point","coordinates":[-5.923182,54.590715]}},{"type":"Feature","properties":{"cell_id":"belfast_06_12","year":2016,"metric":"traffic","value":0.53,"label":"Traffic"},"geometry":{"type":"Point","coordinates":[-5.909546,54.603572]}},{"type":"Feature","properties":{"cell_id":"belfast_06_13","year":2016,"metric":"traffic","value":0.511,"label":"Traffic"},"geometry":{"type":"Point","coordinates":[-5.895909,54.603572]}},{"type":"Feature","properties":{"cell_id":"belfast_05_12","year":2016,"metric":"traffic","value":0.505,"label":"Traffic"},"geometry":{"type":"Point","coordinates":[-5.909546,54.590715]}},{"type":"Feature","properties":{"cell_id":"belfast_06_11","year":2016,"metric":"jobs","value":0.803,"label":"Jobs"},"geometry":{"type":"Point","coordinates":[-5.923182,54.603572]}},{"type":"Feature","properties":{"cell_id":"belfast_06_10","year":2016,"metric":"jobs","value":0.753,"label":"Jobs"},"geometry":{"type":"Point","coordinates":[-5.936818,54.603572]}},{"type":"Feature","properties":{"cell_id":"belfast_05_11","year":2016,"metric":"jobs","value":0.752,"label":"Jobs"},"geometry":{"type":"Point","coordinates":[-5.923182,54.590715]}},{"type":"Feature","properties":{"cell_id":"belfast_05_10","year":2016,"metric":"jobs","value":0.746,"label":"Jobs"},"geometry":{"type":"Point","coordinates":[-5.936818,54.590715]}},{"type":"Feature","properties":{"cell_id":"belfast_06_12","year":2016,"metric":"jobs","value":0.745,"label":"Jobs"},"geometry":{"type":"Point","coordinates":[-5.909546,54.603572]}},{"type":"Feature","properties":{"cell_id":"belfast_05_12","year":2016,"metric":"jobs","value":0.719,"label":"Jobs"},"geometry":{"type":"Point","coordinates":[-5.909546,54.590715]}},{"type":"Feature","properties":{"cell_id":"belfast_05_09","year":2016,"metric":"jobs","value":0.689,"label":"Jobs"},"geometry":{"type":"Point","coordinates":[-5.950455,54.590715]}},{"type":"Feature","properties":{"cell_id":"belfast_06_11","year":2016,"metric":"electricity","value":0.696,"label":"Electricity"},"geometry":{"type":"Point","coordinates":[-5.923182,54.603572]}},{"type":"Feature","properties":{"cell_id":"belfast_05_10","year":2016,"metric":"electricity","value":0.67,"label":"Electricity"},"geometry":{"type":"Point","coordinates":[-5.936818,54.590715]}},{"type":"Feature","properties":{"cell_id":"belfast_06_10","year":2016,"metric":"electricity","value":0.67,"label":"Electricity"},"geometry":{"type":"Point","coordinates":[-5.936818,54.603572]}},{"type":"Feature","properties":{"cell_id":"belfast_06_12","year":2016,"metric":"electricity","value":0.668,"label":"Electricity"},"geometry":{"type":"Point","coordinates":[-5.909546,54.603572]}},{"type":"Feature","properties":{"cell_id":"belfast_05_11","year":2016,"metric":"electricity","value":0.667,"label":"Electricity"},"geometry":{"type":"Point","coordinates":[-5.923182,54.590715]}},{"type":"Feature","properties":{"cell_id":"belfast_05_12","year":2016,"metric":"electricity","value":0.639,"label":"Electricity"},"geometry":{"type":"Point","coordinates":[-5.909546,54.590715]}},{"type":"Feature","properties":{"cell_id":"belfast_06_13","year":2016,"metric":"electricity","value":0.639,"label":"Electricity"},"geometry":{"type":"Point","coordinates":[-5.895909,54.603572]}},{"type":"Feature","properties":{"cell_id":"belfast_06_11","year":2016,"metric":"buildings","value":0.533,"label":"Buildings"},"geometry":{"type":"Point","coordinates":[-5.923182,54.603572]}},{"type":"Feature","properties":{"cell_id":"belfast_06_12","year":2016,"metric":"buildings","value":0.529,"label":"Buildings"},"geometry":{"type":"Point","coordinates":[-5.909546,54.603572]}},{"type":"Feature","properties":{"cell_id":"belfast_05_10","year":2016,"metric":"buildings","value":0.519,"label":"Buildings"},"geometry":{"type":"Point","coordinates":[-5.936818,54.590715]}},{"type":"Feature","properties":{"cell_id":"belfast_05_11","year":2016,"metric":"buildings","value":0.514,"label":"Buildings"},"geometry":{"type":"Point","coordinates":[-5.923182,54.590715]}},{"type":"Feature","properties":{"cell_id":"belfast_06_10","year":2016,"metric":"buildings","value":0.511,"label":"Buildings"},"geometry":{"type":"Point","coordinates":[-5.936818,54.603572]}},{"type":"Feature","properties":{"cell_id":"belfast_06_13","year":2016,"metric":"buildings","value":0.511,"label":"Buildings"},"geometry":{"type":"Point","coordinates":[-5.895909,54.603572]}},{"type":"Feature","properties":{"cell_id":"belfast_07_12","year":2016,"metric":"buildings","value":0.496,"label":"Buildings"},"geometry":{"type":"Point","coordinates":[-5.909546,54.616428]}},{"type":"Feature","properties":{"cell_id":"belfast_06_11","year":2016,"metric":"services","value":0.792,"label":"Services"},"geometry":{"type":"Point","coordinates":[-5.923182,54.603572]}},{"type":"Feature","properties":{"cell_id":"belfast_06_10","year":2016,"metric":"services","value":0.769,"label":"Services"},"geometry":{"type":"Point","coordinates":[-5.936818,54.603572]}},{"type":"Feature","properties":{"cell_id":"belfast_06_12","year":2016,"metric":"services","value":0.769,"label":"Services"},"geometry":{"type":"Point","coordinates":[-5.909546,54.603572]}},{"type":"Feature","properties":{"cell_id":"belfast_05_11","year":2016,"metric":"services","value":0.763,"label":"Services"},"geometry":{"type":"Point","coordinates":[-5.923182,54.590715]}},{"type":"Feature","properties":{"cell_id":"belfast_05_10","year":2016,"metric":"services","value":0.757,"label":"Services"},"geometry":{"type":"Point","coordinates":[-5.936818,54.590715]}},{"type":"Feature","properties":{"cell_id":"belfast_05_12","year":2016,"metric":"services","value":0.741,"label":"Services"},"geometry":{"type":"Point","coordinates":[-5.909546,54.590715]}},{"type":"Feature","properties":{"cell_id":"belfast_05_09","year":2016,"metric":"services","value":0.734,"label":"Services"},"geometry":{"type":"Point","coordinates":[-5.950455,54.590715]}}]}