{"type":"FeatureCollection","features":[{"type":"Feature","properties":{"cell_id":"belfast_06_11","year":2019,"metric":"population_pressure","value":0.716,"label":"Population Pressure"},"geometry":{"type":"Point","coordinates":[-5.923182,54.603572]}},{"type":"Feature","properties":{"cell_id":"belfast_06_12","year":2019,"metric":"population_pressure","value":0.702,"label":"Population Pressure"},"geometry":{"type":"Point","coordinates":[-5.909546,54.603572]}},{"type":"Feature","properties":{"cell_id":"belfast_06_10","year":2019,"metric":"population_pressure","value":0.693,"label":"Population Pressure"},"geometry":{"type":"Point","coordinates":[-5.936818,54.603572]}},{"type":"Feature","properties":{"cell_id":"belfast_05_11","year":2019,"metric":"population_pressure","value":0.68,"label":"Population Pressure"},"geometry":{"type":"Point","coordinates":[-5.923182,54.590715]}},{"type":"Feature","properties":{"cell_id":"belfast_05_10","year":2019,"metric":"population_pressure","value":0.669,"label":"Population Pressure"},"geometry":{"type":"Point","coordinates":[-5.936818,54.590715]}},{"type":"Feature","properties":{"cell_id":"belfast_06_13","year":2019,"metric":"population_pressure","value":0.662,"label":"Population Pressure"},"geometry":{"type":"Point","coordinates":[-5.895909,54.603572]}},{"type":"Feature","properties":{"cell_id":"belfast_05_12","year":2019,"metric":"population_pressure","value":0.656,"label":"Population Pressure"},"geometry":{"type":"Point","coordinates":[-5.909546,54.590715]}},{"type":"Feature","properties":{"cell_id":"belfast_07_13","year":2019,"metric":"mobility_strain","value":0.531,"label":"Mobility Strain"},"geometry":{"type":"Point","coordinates":[-5.895909,54.616428]}},{"type":"Feature","properties":{"cell_id":"belfast_07_14","year":2019,"metric":"mobility_strain","value":0.53,"label":"Mobility Strain"},"geometry":{"type":"Point","coordinates":[-5.882273,54.616428]}},{"type":"Feature","properties":{"cell_id":"belfast_08_14","year":2019,"metric":"mobility_strain","value":0.522,"label":"Mobility Strain"},"geometry":{"type":"Point","coordinates":[-5.882273,54.629286]}},{"type":"Feature","properties":{"cell_id":"belfast_07_12","year":2019,"metric":"mobility_strain","value":0.52,"label":"Mobility Strain"},"geometry":{"type":"Point","coordinates":[-5.909546,54.616428]}},{"type":"Feature","properties":{"cell_id":"belfast_08_13","year":2019,"metric":"mobility_strain","value":0.514,"label":"Mobility Strain"},"geometry":{"type":"Point","coordinates":[-5.895909,54.629286]}},{"type":"Feature","properties":{"cell_id":"belfast_07_11","year":2019,"metric":"mobility_strain","value":0.513,"label":"Mobility Strain"},"geometry":{"type":"Point","coordinates":[-5.923182,54.616428]}},{"type":"Feature","properties":{"cell_id":"belfast_07_15","year":2019,"metric":"mobility_strain","value":0.51,"label":"Mobility Strain"},"geometry":{"type":"Point","coordinates":[-5.868637,54.616428]}},{"type":"Feature","properties":{"cell_id":"belfast_06_11","year":2019,"metric":"economic_opportunity","value":0.825,"label":"Economic Opportunity"},"geometry":{"type":"Point","coordinates":[-5.923182,54.603572]}},{"type":"Feature","properties":{"cell_id":"belfast_06_12","year":2019,"metric":"economic_opportunity","value":0.785,"label":"Economic Opportunity"},"geometry":{"type":"Point","coordinates":[-5.909546,54.603572]}},{"type":"Feature","properties":{"cell_id":"belfast_06_10","year":2019,"metric":"economic_opportunity","value":0.781,"label":"Economic Opportunity"},"geometry":{"type":"Point","coordinates":[-5.936818,54.603572]}},{"type":"Feature","properties":{"cell_id":"belfast_05_11","year":2019,"metric":"economic_opportunity","value":0.778,"label":"Economic Opportunity"},"geometry":{"type":"Point","coordinates":[-5.923182,54.590715]}},{"type":"Feature","properties":{"cell_id":"belfast_05_10","year":2019,"metric":"economic_opportunity","value":0.771,"label":"Economic Opportunity"},"geometry":{"type":"Point","coordinates":[-5.936818,54.590715]}},{"type":"Feature","properties":{"cell_id":"belfast_05_12","year":2019,"metric":"economic_opportunity","value":0.754,"label":"Economic Opportunity"},"geometry":{"type":"Point","coordinates":[-5.909546,54.590715]}},{"type":"Feature","properties":{"cell_id":"belfast_05_09","year":2019,"metric":"economic_opportunity","value":0.731,"label":"Economic Opportunity"},"geometry":{"type":"Point","coordinates":[-5.950455,54.590715]}},{"type":"Feature","properties":{"cell_id":"belfast_06_11","year":2019,"metric":"environmental_exposure","value":0.519,"label":"Environmental Exposure"},"geometry":{"type":"Point","coordinates":[-5.923182,54.603572]}},{"type":"Feature","properties":{"cell_id":"belfast_05_11","year":2019,"metric":"environmental_exposure","value":0.498,"label":"Environmental Exposure"},"geometry":{"type":"Point","coordinates":[-5.923182,54.590715]}},{"type":"Feature","properties":{"cell_id":"belfast_05_10","year":2019,"metric":"environmental_exposure","value":0.476,"label":"Environmental Exposure"},"geometry":{"type":"Point","coordinates":[-5.936818,54.590715]}},{"type":"Feature","properties":{"cell_id":"belfast_06_12","year":2019,"metric":"environmental_exposure","value":0.444,"label":"Environmental Exposure"},"geometry":{"type":"Point","coordinates":[-5.909546,54.603572]}},{"type":"Feature","properties":{"cell_id":"belfast_06_10","year":2019,"metric":"environmental_exposure","value":0.442,"label":"Environmental Exposure"},"geometry":{"type":"Point","coordinates":[-5.936818,54.603572]}},{"type":"Feature","properties":{"cell_id":"belfast_11_13","year":2019,"metric":"environmental_exposure","value":0.442,"label":"Environmental Exposure"},"geometry":{"type":"Point","coordinates":[-5.895909,54.667857]}},{"type":"Feature","properties":{"cell_id":"belfast_05_12","year":2019,"metric":"environmental_exposure","value":0.406,"label":"Environmental Exposure"},"geometry":{"type":"Point","coordinates":[-5.909546,54.590715]}},{"type":"Feature","properties":{"cell_id":"belfast_05_11","year":2019,"metric":"fairness_score","value":0.564,"label":"Fairness Score"},"geometry":{"type":"Point","coordinates":[-5.923182,54.590715]}},{"type":"Feature","properties":{"cell_id":"belfast_05_12","year":2019,"metric":"fairness_score","value":0.564,"label":"Fairness Score"},"geometry":{"type":"Point","coordinates":[-5.909546,54.590715]}},{"type":"Feature","properties":{"cell_id":"belfast_06_11","year":2019,"metric":"fairness_score","value":0.559,"label":"Fairness Score"},"geometry":{"type":"Point","coordinates":[-5.923182,54.603572]}},{"type":"Feature","properties":{"cell_id":"belfast_06_12","year":2019,"metric":"fairness_score","value":0.558,"label":"Fairness Score"},"geometry":{"type":"Point","coordinates":[-5.909546,54.603572]}},{"type":"Feature","properties":{"cell_id":"belfast_05_09","year":2019,"metric":"fairness_score","value":0.556,"label":"Fairness Score"},"geometry":{"type":"Point","coordinates":[-5.950455,54.590715]}},{"type":"Feature","properties":{"cell_id":"belfast_05_10","year":2019,"metric":"fairness_score","value":0.553,"label":"Fairness Score"},"geometry":{"type":"Point","coordinates":[-5.936818,54.590715]}},{"type":"Feature","properties":{"cell_id":"belfast_06_10","year":2019,"metric":"fairness_score","value":0.548,"label":"Fairness Score"},"geometry":{"type":"Point","coordinates":[-5.936818,54.603572]}}]}