{
  "type": "FeatureCollection",
  "generator": "overpass-turbo",
  "copyright": "The data included in this document is from www.openstreetmap.org. The data is made available under ODbL.",
  "timestamp": "2026-04-25T11:45:33Z",
  "features": [
    {
      "type": "Feature",
      "properties": {
        "@id": "way/11484665",
        "bridge": "yes",
        "highway": "service",
        "layer": "1",
        "service": "driveway",
        "surface": "wood",
        "tiger:cfcc": "A41",
        "tiger:county": "Waldo, ME",
        "tiger:reviewed": "no"
      },
      "geometry": {
        "type": "LineString",
        "coordinates": [
          [
            -68.9996205,
            44.4439271
          ],
          [
            -68.9994157,
            44.4439604
          ]
        ]
      },
      "id": "way/11484665"
    },
    {
      "type": "Feature",
      "properties": {
        "@id": "way/58868645",
        "bridge": "yes",
        "highway": "primary",
        "layer": "1",
        "name": "High Street",
        "tiger:cfcc": "A41",
        "tiger:county": "Waldo, ME",
        "tiger:name_base": "High",
        "tiger:name_type": "St",
        "tiger:reviewed": "no"
      },
      "geometry": {
        "type": "LineString",
        "coordinates": [
          [
            -69.0152438,
            44.4318082
          ],
          [
            -69.0155979,
            44.4322027
          ]
        ]
      },
      "id": "way/58868645"
    },
    {
      "type": "Feature",
      "properties": {
        "@id": "way/58868650",
        "bridge": "yes",
        "cycleway": "shared_lane",
        "highway": "secondary",
        "layer": "1",
        "maxspeed": "25 mph",
        "name": "Waldo Avenue",
        "ref": "ME 7;ME 137",
        "surface": "concrete",
        "tiger:cfcc": "A31",
        "tiger:county": "Waldo, ME",
        "tiger:name_base": "Waldo",
        "tiger:name_base_1": "State Route 7",
        "tiger:name_base_2": "State Route 137",
        "tiger:name_type": "Ave",
        "tiger:zip_left": "04915"
      },
      "geometry": {
        "type": "LineString",
        "coordinates": [
          [
            -69.0175974,
            44.4310469
          ],
          [
            -69.0180287,
            44.4313705
          ]
        ]
      },
      "id": "way/58868650"
    },
    {
      "type": "Feature",
      "properties": {
        "@id": "way/101821770",
        "NHS": "yes",
        "bridge": "yes",
        "expressway": "yes",
        "highway": "trunk",
        "lanes": "2",
        "layer": "1",
        "name": "Route 1",
        "oneway": "no",
        "ref": "US 1",
        "tiger:cfcc": "A21",
        "tiger:county": "Waldo, ME",
        "tiger:name_base": "United States Highway 1",
        "tiger:reviewed": "no"
      },
      "geometry": {
        "type": "LineString",
        "coordinates": [
          [
            -69.021536,
            44.4235352
          ],
          [
            -69.0216062,
            44.4238223
          ]
        ]
      },
      "id": "way/101821770"
    },
    {
      "type": "Feature",
      "properties": {
        "@id": "way/101822040",
        "NHS": "yes",
        "bridge": "yes",
        "highway": "trunk",
        "lanes": "2",
        "layer": "1",
        "name": "Northport Avenue",
        "ref": "US 1",
        "tiger:cfcc": "A21",
        "tiger:county": "Waldo, ME",
        "tiger:name_base": "Northport",
        "tiger:name_base_1": "United States Highway 1",
        "tiger:name_type": "Ave",
        "tiger:reviewed": "no",
        "tiger:zip_left": "04915",
        "tiger:zip_right": "04915"
      },
      "geometry": {
        "type": "LineString",
        "coordinates": [
          [
            -68.9888866,
            44.3942358
          ],
          [
            -68.9887003,
            44.3944904
          ]
        ]
      },
      "id": "way/101822040"
    },
    {
      "type": "Feature",
      "properties": {
        "@id": "way/101822118",
        "NHS": "yes",
        "bridge": "yes",
        "expressway": "yes",
        "highway": "trunk",
        "lanes": "2",
        "layer": "1",
        "maxspeed": "45 mph",
        "name": "Route 1",
        "oneway": "no",
        "ref": "US 1;ME 3",
        "surface": "asphalt",
        "tiger:cfcc": "A21",
        "tiger:county": "Waldo, ME",
        "tiger:name_base": "United States Highway 1",
        "tiger:reviewed": "no"
      },
      "geometry": {
        "type": "LineString",
        "coordinates": [
          [
            -69.0132521,
            44.4325503
          ],
          [
            -69.0102453,
            44.4333162
          ]
        ]
      },
      "id": "way/101822118"
    },
    {
      "type": "Feature",
      "properties": {
        "@id": "way/131826448",
        "bridge": "yes",
        "bridge:structure": "beam",
        "highway": "path",
        "layer": "1",
        "lit": "yes",
        "motor_vehicle": "no",
        "name": "Armistice Bridge",
        "segregated": "no",
        "surface": "concrete"
      },
      "geometry": {
        "type": "LineString",
        "coordinates": [
          [
            -69.0099652,
            44.4312606
          ],
          [
            -69.0097767,
            44.431356
          ],
          [
            -69.009553,
            44.4314708
          ],
          [
            -69.0093966,
            44.4315502
          ]
        ]
      },
      "id": "way/131826448"
    },
    {
      "type": "Feature",
      "properties": {
        "@id": "way/283763187",
        "bridge": "yes",
        "highway": "secondary",
        "lanes": "2",
        "layer": "1",
        "name": "Swan Lake Avenue",
        "ref": "ME 141",
        "tiger:cfcc": "A31",
        "tiger:county": "Waldo, ME",
        "tiger:name_base": "Swan Lake",
        "tiger:name_base_1": "State Route 141",
        "tiger:name_type": "Ave"
      },
      "geometry": {
        "type": "LineString",
        "coordinates": [
          [
            -68.999965,
            44.4451649
          ],
          [
            -68.99999,
            44.4452765
          ]
        ]
      },
      "id": "way/283763187"
    },
    {
      "type": "Feature",
      "properties": {
        "@id": "way/283764528",
        "bridge": "yes",
        "highway": "residential",
        "layer": "1",
        "name": "Sheppard Road",
        "portage": "yes",
        "surface": "metal",
        "tiger:cfcc": "A41",
        "tiger:county": "Waldo, ME",
        "tiger:name_base": "Sheppard",
        "tiger:name_type": "Rd",
        "tiger:reviewed": "no",
        "tiger:zip_left": "04915",
        "tiger:zip_left_1": "04915",
        "tiger:zip_right": "04915"
      },
      "geometry": {
        "type": "LineString",
        "coordinates": [
          [
            -69.0620788,
            44.4443366
          ],
          [
            -69.0619537,
            44.4444379
          ]
        ]
      },
      "id": "way/283764528"
    },
    {
      "type": "Feature",
      "properties": {
        "@id": "way/302480856",
        "abandoned:railway": "rail",
        "bicycle": "yes",
        "bridge": "yes",
        "electrified": "no",
        "foot": "yes",
        "gauge": "1435",
        "highway": "path",
        "layer": "1",
        "name": "Belfast Rail Trail",
        "note:old_railway_operator": "Belfast and Moosehead Lake Railroad",
        "old_railway_operator": "MEC",
        "railway": "abandoned",
        "tiger:cfcc": "B11",
        "tiger:county": "Waldo, ME",
        "tiger:name_base": "Belfast and Moosehead Lake RR"
      },
      "geometry": {
        "type": "LineString",
        "coordinates": [
          [
            -69.0337991,
            44.4494417
          ],
          [
            -69.0340358,
            44.4499883
          ]
        ]
      },
      "id": "way/302480856"
    },
    {
      "type": "Feature",
      "properties": {
        "@id": "way/302480858",
        "bridge": "yes",
        "highway": "tertiary",
        "layer": "1",
        "name": "City Point Road",
        "tiger:cfcc": "A41",
        "tiger:county": "Waldo, ME",
        "tiger:name_base": "City Point",
        "tiger:name_type": "Rd",
        "tiger:reviewed": "no"
      },
      "geometry": {
        "type": "LineString",
        "coordinates": [
          [
            -69.0350678,
            44.4499209
          ],
          [
            -69.0349652,
            44.4497768
          ],
          [
            -69.034874,
            44.4496738
          ],
          [
            -69.0348304,
            44.4496379
          ]
        ]
      },
      "id": "way/302480858"
    },
    {
      "type": "Feature",
      "properties": {
        "@id": "way/366017853",
        "bridge": "yes",
        "highway": "footway",
        "layer": "1"
      },
      "geometry": {
        "type": "LineString",
        "coordinates": [
          [
            -69.0132172,
            44.4324864
          ],
          [
            -69.0131487,
            44.4325037
          ],
          [
            -69.0072054,
            44.434007
          ]
        ]
      },
      "id": "way/366017853"
    },
    {
      "type": "Feature",
      "properties": {
        "@id": "way/1112598067",
        "bicycle": "yes",
        "bridge": "boardwalk",
        "highway": "path",
        "layer": "1",
        "name": "Harbor Walk",
        "surface": "wood",
        "width": "15 ft"
      },
      "geometry": {
        "type": "LineString",
        "coordinates": [
          [
            -69.0101513,
            44.4311599
          ],
          [
            -69.0098567,
            44.4309076
          ],
          [
            -69.0093648,
            44.4304941
          ],
          [
            -69.0091623,
            44.4303261
          ],
          [
            -69.0094507,
            44.4301474
          ]
        ]
      },
      "id": "way/1112598067"
    },
    {
      "type": "Feature",
      "properties": {
        "@id": "way/1112599041",
        "bridge": "yes",
        "highway": "residential",
        "layer": "1",
        "name": "Herrick Road",
        "tiger:cfcc": "A41",
        "tiger:county": "Waldo, ME",
        "tiger:name_base": "Herrick",
        "tiger:name_type": "Rd",
        "tiger:reviewed": "no"
      },
      "geometry": {
        "type": "LineString",
        "coordinates": [
          [
            -69.0038481,
            44.3986266
          ],
          [
            -69.0037758,
            44.3986794
          ],
          [
            -69.0035667,
            44.3988076
          ]
        ]
      },
      "id": "way/1112599041"
    },
    {
      "type": "Feature",
      "properties": {
        "@id": "way/1112636473",
        "bridge": "yes",
        "highway": "path",
        "layer": "1",
        "name": "Hills to Sea Trail",
        "surface": "wood",
        "trail_visibility": "excellent"
      },
      "geometry": {
        "type": "LineString",
        "coordinates": [
          [
            -69.0347667,
            44.4563626
          ],
          [
            -69.0348535,
            44.4563911
          ]
        ]
      },
      "id": "way/1112636473"
    },
    {
      "type": "Feature",
      "properties": {
        "@id": "way/1112742121",
        "bridge": "yes",
        "highway": "tertiary",
        "layer": "1",
        "name": "Poors Mills Road",
        "surface": "paved"
      },
      "geometry": {
        "type": "LineString",
        "coordinates": [
          [
            -69.1015135,
            44.428934
          ],
          [
            -69.1017462,
            44.4290308
          ]
        ]
      },
      "id": "way/1112742121"
    },
    {
      "type": "Feature",
      "properties": {
        "@id": "way/1112742122",
        "bridge": "yes",
        "highway": "residential",
        "layer": "1",
        "name": "Turkey Farm Road",
        "tiger:cfcc": "A41",
        "tiger:county": "Waldo, ME",
        "tiger:name_base": "Turkey Farm",
        "tiger:name_type": "Rd",
        "tiger:reviewed": "no"
      },
      "geometry": {
        "type": "LineString",
        "coordinates": [
          [
            -69.0961504,
            44.4299961
          ],
          [
            -69.0960947,
            44.4301008
          ]
        ]
      },
      "id": "way/1112742122"
    },
    {
      "type": "Feature",
      "properties": {
        "@id": "way/1112744694",
        "bridge": "yes",
        "highway": "secondary",
        "layer": "1",
        "name": "Waterville Road",
        "ref": "ME 7;ME 137",
        "surface": "asphalt",
        "tiger:cfcc": "A31",
        "tiger:county": "Waldo, ME",
        "tiger:name_base": "Waterville",
        "tiger:name_base_1": "State Route 137",
        "tiger:name_type": "Rd"
      },
      "geometry": {
        "type": "LineString",
        "coordinates": [
          [
            -69.0586451,
            44.4431112
          ],
          [
            -69.0588221,
            44.4431945
          ]
        ]
      },
      "id": "way/1112744694"
    },
    {
      "type": "Feature",
      "properties": {
        "@id": "way/1112744697",
        "bridge": "yes",
        "highway": "residential",
        "layer": "1",
        "name": "Doak Road",
        "name_1": "Waldo Avenue",
        "surface": "paved",
        "tiger:cfcc": "A41",
        "tiger:county": "Waldo, ME",
        "tiger:name_base": "Doak",
        "tiger:name_base_1": "Waldo",
        "tiger:name_type": "Rd",
        "tiger:name_type_1": "Ave"
      },
      "geometry": {
        "type": "LineString",
        "coordinates": [
          [
            -69.0500828,
            44.4492071
          ],
          [
            -69.0501814,
            44.4493756
          ]
        ]
      },
      "id": "way/1112744697"
    },
    {
      "type": "Feature",
      "properties": {
        "@id": "way/1205600806",
        "bridge": "yes",
        "highway": "unclassified",
        "layer": "1",
        "name": "Smart Road",
        "surface": "paved",
        "tiger:cfcc": "A41",
        "tiger:county": "Waldo, ME",
        "tiger:name_base": "Smart",
        "tiger:name_type": "Rd",
        "tiger:reviewed": "no"
      },
      "geometry": {
        "type": "LineString",
        "coordinates": [
          [
            -68.9933667,
            44.4829172
          ],
          [
            -68.993312,
            44.482988
          ]
        ]
      },
      "id": "way/1205600806"
    },
    {
      "type": "Feature",
      "properties": {
        "@id": "way/1208107445",
        "bridge": "movable",
        "bridge:movable": "drawbridge",
        "description": "To open bridge, contact City of Belfast Harbor Master: VFH CH 9 or 16",
        "highway": "path",
        "layer": "1",
        "lit": "yes",
        "material": "aluminium",
        "motor_vehicle": "no",
        "name": "Armistice Bridge",
        "segregated": "no",
        "surface": "metal"
      },
      "geometry": {
        "type": "LineString",
        "coordinates": [
          [
            -69.0093966,
            44.4315502
          ],
          [
            -69.0092699,
            44.431614
          ]
        ]
      },
      "id": "way/1208107445"
    },
    {
      "type": "Feature",
      "properties": {
        "@id": "way/1208107446",
        "bridge": "yes",
        "bridge:structure": "beam",
        "highway": "path",
        "layer": "1",
        "lit": "yes",
        "motor_vehicle": "no",
        "segregated": "no",
        "surface": "concrete"
      },
      "geometry": {
        "type": "LineString",
        "coordinates": [
          [
            -69.0092699,
            44.431614
          ],
          [
            -69.0091454,
            44.4316784
          ],
          [
            -69.0089532,
            44.4317734
          ],
          [
            -69.0087771,
            44.431863
          ],
          [
            -69.0085834,
            44.4319612
          ],
          [
            -69.0084018,
            44.4320529
          ],
          [
            -69.0082204,
            44.4321466
          ],
          [
            -69.0080326,
            44.432243
          ],
          [
            -69.0078559,
            44.4323333
          ],
          [
            -69.0076699,
            44.4324274
          ],
          [
            -69.0074901,
            44.4325185
          ],
          [
            -69.0073082,
            44.4326114
          ],
          [
            -69.0071123,
            44.4327101
          ],
          [
            -69.0069329,
            44.4328018
          ],
          [
            -69.0067329,
            44.432905
          ]
        ]
      },
      "id": "way/1208107446"
    },
    {
      "type": "Feature",
      "properties": {
        "@id": "way/1361554958",
        "NHS": "yes",
        "bridge": "yes",
        "expressway": "yes",
        "highway": "trunk",
        "lanes": "2",
        "layer": "1",
        "maxspeed": "45 mph",
        "name": "Searsport Avenue",
        "oneway": "no",
        "ref": "US 1;ME 3",
        "surface": "asphalt",
        "tiger:cfcc": "A21",
        "tiger:county": "Waldo, ME",
        "tiger:name_base": "United States Highway 1",
        "tiger:reviewed": "no"
      },
      "geometry": {
        "type": "LineString",
        "coordinates": [
          [
            -69.0102453,
            44.4333162
          ],
          [
            -69.0072275,
            44.4340587
          ]
        ]
      },
      "id": "way/1361554958"
    },
    {
      "type": "Feature",
      "properties": {
        "@id": "way/1500308137",
        "bridge": "yes",
        "highway": "tertiary",
        "layer": "1",
        "maxspeed": "40 mph",
        "name": "Lincolnville Avenue",
        "name_1": "State Route 52",
        "ref": "ME 52",
        "tiger:cfcc": "A31",
        "tiger:county": "Waldo, ME",
        "tiger:name_base": "Lincolnville",
        "tiger:name_base_1": "State Route 52",
        "tiger:name_type": "Ave"
      },
      "geometry": {
        "type": "LineString",
        "coordinates": [
          [
            -69.0308137,
            44.4047189
          ],
          [
            -69.0307854,
            44.404937
          ]
        ]
      },
      "id": "way/1500308137"
    }
  ]
}