{
  "type": "FeatureCollection",
  "generator": "overpass-turbo",
  "copyright": "The data included in this document is from www.openstreetmap.org. The data is made available under ODbL.",
  "timestamp": "2026-04-25T11:48:36Z",
  "features": [
    {
      "type": "Feature",
      "properties": {
        "@id": "way/167678711",
        "addr:city": "Belfast",
        "addr:housenumber": "239",
        "addr:postcode": "04915",
        "addr:state": "ME",
        "addr:street": "Main Street",
        "gnis:feature_id": "567354",
        "landuse": "cemetery",
        "name": "Grove Cemetery",
        "religion": "christian"
      },
      "geometry": {
        "type": "Polygon",
        "coordinates": [
          [
            [
              -69.0164695,
              44.4278387
            ],
            [
              -69.018315,
              44.4276395
            ],
            [
              -69.0185303,
              44.4280658
            ],
            [
              -69.0204942,
              44.4278633
            ],
            [
              -69.0207738,
              44.4278316
            ],
            [
              -69.0208205,
              44.4281948
            ],
            [
              -69.0208796,
              44.4286546
            ],
            [
              -69.0209397,
              44.4285766
            ],
            [
              -69.021104,
              44.4283386
            ],
            [
              -69.0212358,
              44.4280823
            ],
            [
              -69.0213832,
              44.4277719
            ],
            [
              -69.0214641,
              44.4275476
            ],
            [
              -69.0215342,
              44.4273668
            ],
            [
              -69.0216005,
              44.427016
            ],
            [
              -69.0216689,
              44.4265303
            ],
            [
              -69.018367,
              44.4268689
            ],
            [
              -69.0182737,
              44.4264137
            ],
            [
              -69.0179783,
              44.4264322
            ],
            [
              -69.0178073,
              44.4256994
            ],
            [
              -69.0179057,
              44.4255958
            ],
            [
              -69.0183411,
              44.4255587
            ],
            [
              -69.0182737,
              44.4253034
            ],
            [
              -69.0192117,
              44.4252034
            ],
            [
              -69.0189889,
              44.4240672
            ],
            [
              -69.0149777,
              44.424578
            ],
            [
              -69.0154493,
              44.4263175
            ],
            [
              -69.0157291,
              44.4273611
            ],
            [
              -69.0162932,
              44.4272262
            ],
            [
              -69.0164695,
              44.4278387
            ]
          ]
        ]
      },
      "id": "way/167678711"
    },
    {
      "type": "Feature",
      "properties": {
        "@id": "way/208142449",
        "landuse": "cemetery",
        "source": "NRCan-CanVec-10.0"
      },
      "geometry": {
        "type": "Polygon",
        "coordinates": [
          [
            [
              -62.8772314,
              46.0771933
            ],
            [
              -62.8753686,
              46.0776647
            ],
            [
              -62.8760589,
              46.0791285
            ],
            [
              -62.8763712,
              46.0790659
            ],
            [
              -62.877979,
              46.0787502
            ],
            [
              -62.8772314,
              46.0771933
            ]
          ]
        ]
      },
      "id": "way/208142449"
    },
    {
      "type": "Feature",
      "properties": {
        "@id": "way/815748675",
        "landuse": "industrial"
      },
      "geometry": {
        "type": "Polygon",
        "coordinates": [
          [
            [
              -69.0147266,
              44.4069754
            ],
            [
              -69.0145576,
              44.405956
            ],
            [
              -69.0125003,
              44.4061361
            ],
            [
              -69.0125513,
              44.4065289
            ],
            [
              -69.0119693,
              44.4065711
            ],
            [
              -69.0120927,
              44.4071881
            ],
            [
              -69.012664,
              44.4072743
            ],
            [
              -69.0133292,
              44.4072628
            ],
            [
              -69.0138334,
              44.4071402
            ],
            [
              -69.0143403,
              44.407098
            ],
            [
              -69.0147266,
              44.4069754
            ]
          ]
        ]
      },
      "id": "way/815748675"
    },
    {
      "type": "Feature",
      "properties": {
        "@id": "way/1112597979",
        "landuse": "meadow"
      },
      "geometry": {
        "type": "Polygon",
        "coordinates": [
          [
            [
              -69.0264666,
              44.4427004
            ],
            [
              -69.0290362,
              44.4417774
            ],
            [
              -69.0285909,
              44.4410842
            ],
            [
              -69.0281779,
              44.4399658
            ],
            [
              -69.0253562,
              44.4409386
            ],
            [
              -69.0264666,
              44.4427004
            ]
          ]
        ]
      },
      "id": "way/1112597979"
    },
    {
      "type": "Feature",
      "properties": {
        "@id": "way/1112736778",
        "landuse": "landfill",
        "note": "Old Belfast dump"
      },
      "geometry": {
        "type": "Polygon",
        "coordinates": [
          [
            [
              -69.0682152,
              44.4222546
            ],
            [
              -69.0693471,
              44.4215458
            ],
            [
              -69.0695536,
              44.4203217
            ],
            [
              -69.0693015,
              44.4198121
            ],
            [
              -69.0686551,
              44.4195477
            ],
            [
              -69.0683842,
              44.4198102
            ],
            [
              -69.0670753,
              44.420314
            ],
            [
              -69.066276,
              44.4204347
            ],
            [
              -69.0659326,
              44.421268
            ],
            [
              -69.0664154,
              44.4218427
            ],
            [
              -69.0667105,
              44.4227373
            ],
            [
              -69.0682152,
              44.4222546
            ]
          ]
        ]
      },
      "id": "way/1112736778"
    },
    {
      "type": "Feature",
      "properties": {
        "@id": "way/1200962632",
        "landuse": "retail"
      },
      "geometry": {
        "type": "Polygon",
        "coordinates": [
          [
            [
              -68.9967615,
              44.4327369
            ],
            [
              -68.9967733,
              44.4328771
            ],
            [
              -68.99677,
              44.4329836
            ],
            [
              -68.996729,
              44.4331687
            ],
            [
              -68.996729,
              44.4332097
            ],
            [
              -68.9967569,
              44.433232
            ],
            [
              -68.9967995,
              44.4332495
            ],
            [
              -68.9988532,
              44.4335447
            ],
            [
              -68.9989287,
              44.4330164
            ],
            [
              -68.9985087,
              44.4329922
            ],
            [
              -68.9982303,
              44.432916
            ],
            [
              -68.9982181,
              44.4326268
            ],
            [
              -68.9977522,
              44.4325975
            ],
            [
              -68.9967615,
              44.4327369
            ]
          ]
        ]
      },
      "id": "way/1200962632"
    },
    {
      "type": "Feature",
      "properties": {
        "@id": "way/1205600807",
        "ele": "67",
        "gnis:feature_id": "575577",
        "landuse": "cemetery",
        "name": "Smart Cemetery"
      },
      "geometry": {
        "type": "Polygon",
        "coordinates": [
          [
            [
              -68.9935755,
              44.4863076
            ],
            [
              -68.9941693,
              44.4860751
            ],
            [
              -68.9945403,
              44.4859531
            ],
            [
              -68.996015,
              44.4852855
            ],
            [
              -68.9954922,
              44.4847583
            ],
            [
              -68.993553,
              44.4856654
            ],
            [
              -68.9935755,
              44.4863076
            ]
          ]
        ]
      },
      "id": "way/1205600807"
    },
    {
      "type": "Feature",
      "properties": {
        "@id": "way/1282645475",
        "landuse": "greenhouse_horticulture"
      },
      "geometry": {
        "type": "Polygon",
        "coordinates": [
          [
            [
              -69.0263303,
              44.4140725
            ],
            [
              -69.0263858,
              44.4141591
            ],
            [
              -69.0265557,
              44.4141035
            ],
            [
              -69.0265003,
              44.4140169
            ],
            [
              -69.0263303,
              44.4140725
            ]
          ]
        ]
      },
      "id": "way/1282645475"
    },
    {
      "type": "Feature",
      "properties": {
        "@id": "way/1282645477",
        "landuse": "greenhouse_horticulture"
      },
      "geometry": {
        "type": "Polygon",
        "coordinates": [
          [
            [
              -69.0260028,
              44.4134157
            ],
            [
              -69.0260515,
              44.4133981
            ],
            [
              -69.0260177,
              44.4133501
            ],
            [
              -69.0259689,
              44.4133676
            ],
            [
              -69.0260028,
              44.4134157
            ]
          ]
        ]
      },
      "id": "way/1282645477"
    },
    {
      "type": "Feature",
      "properties": {
        "@id": "way/1282645478",
        "landuse": "greenhouse_horticulture"
      },
      "geometry": {
        "type": "Polygon",
        "coordinates": [
          [
            [
              -69.0260489,
              44.4134866
            ],
            [
              -69.0260965,
              44.4134717
            ],
            [
              -69.0260656,
              44.4134214
            ],
            [
              -69.0260181,
              44.4134363
            ],
            [
              -69.0260489,
              44.4134866
            ]
          ]
        ]
      },
      "id": "way/1282645478"
    },
    {
      "type": "Feature",
      "properties": {
        "@id": "way/1296116554",
        "ele": "117",
        "gnis:feature_id": "575473",
        "landuse": "cemetery",
        "name": "Simmons Cemetery"
      },
      "geometry": {
        "type": "Polygon",
        "coordinates": [
          [
            [
              -69.0888467,
              44.407739
            ],
            [
              -69.0891954,
              44.4075838
            ],
            [
              -69.089056,
              44.4074372
            ],
            [
              -69.088714,
              44.4075934
            ],
            [
              -69.0888467,
              44.407739
            ]
          ]
        ]
      },
      "id": "way/1296116554"
    },
    {
      "type": "Feature",
      "properties": {
        "@id": "way/1303564541",
        "landuse": "retail"
      },
      "geometry": {
        "type": "Polygon",
        "coordinates": [
          [
            [
              -69.0054499,
              44.4283208
            ],
            [
              -69.0055116,
              44.42834
            ],
            [
              -69.0055196,
              44.4281082
            ],
            [
              -69.0054901,
              44.4279563
            ],
            [
              -69.005542,
              44.4278993
            ],
            [
              -69.0055628,
              44.427827
            ],
            [
              -69.005635,
              44.4278171
            ],
            [
              -69.0057101,
              44.4277979
            ],
            [
              -69.0059702,
              44.4277098
            ],
            [
              -69.0071638,
              44.4275642
            ],
            [
              -69.0073596,
              44.427252
            ],
            [
              -69.0068822,
              44.4270853
            ],
            [
              -69.0070968,
              44.4267482
            ],
            [
              -69.0087383,
              44.4272673
            ],
            [
              -69.0089073,
              44.4268976
            ],
            [
              -69.0082018,
              44.4266678
            ],
            [
              -69.0074998,
              44.4264374
            ],
            [
              -69.0075464,
              44.4263616
            ],
            [
              -69.007709,
              44.4260968
            ],
            [
              -69.0076085,
              44.4259623
            ],
            [
              -69.0078256,
              44.425808
            ],
            [
              -69.0078865,
              44.4257647
            ],
            [
              -69.0084846,
              44.4261694
            ],
            [
              -69.0085076,
              44.426164
            ],
            [
              -69.0089314,
              44.4253748
            ],
            [
              -69.0089073,
              44.4252733
            ],
            [
              -69.0103047,
              44.4250664
            ],
            [
              -69.0103261,
              44.4250281
            ],
            [
              -69.0097173,
              44.424599
            ],
            [
              -69.0081857,
              44.4248691
            ],
            [
              -69.0081509,
              44.4247465
            ],
            [
              -69.0073408,
              44.425461
            ],
            [
              -69.0066998,
              44.4250243
            ],
            [
              -69.0060856,
              44.4255338
            ],
            [
              -69.0057235,
              44.4253537
            ],
            [
              -69.0055286,
              44.425588
            ],
            [
              -69.0054526,
              44.4256794
            ],
            [
              -69.0047686,
              44.4253212
            ],
            [
              -69.0046989,
              44.4253078
            ],
            [
              -69.0036528,
              44.4262694
            ],
            [
              -69.0051548,
              44.4269972
            ],
            [
              -69.0051092,
              44.4270643
            ],
            [
              -69.0050824,
              44.4270892
            ],
            [
              -69.0050556,
              44.4271773
            ],
            [
              -69.005128,
              44.4272769
            ],
            [
              -69.005225,
              44.427415
            ],
            [
              -69.0047901,
              44.4275566
            ],
            [
              -69.0051253,
              44.4279396
            ],
            [
              -69.0050288,
              44.4279971
            ],
            [
              -69.0048893,
              44.4281369
            ],
            [
              -69.0049322,
              44.4281752
            ],
            [
              -69.0050878,
              44.428248
            ],
            [
              -69.0054499,
              44.4283208
            ]
          ]
        ]
      },
      "id": "way/1303564541"
    },
    {
      "type": "Feature",
      "properties": {
        "@id": "way/1303564777",
        "landuse": "retail"
      },
      "geometry": {
        "type": "Polygon",
        "coordinates": [
          [
            [
              -69.005981,
              44.4284051
            ],
            [
              -69.0053185,
              44.4283764
            ],
            [
              -69.0048839,
              44.4282595
            ],
            [
              -69.004715,
              44.4282193
            ],
            [
              -69.0045513,
              44.4283112
            ],
            [
              -69.0043636,
              44.4285296
            ],
            [
              -69.0045889,
              44.4286292
            ],
            [
              -69.0043931,
              44.4289357
            ],
            [
              -69.0045077,
              44.4289556
            ],
            [
              -69.0047015,
              44.4289893
            ],
            [
              -69.0048142,
              44.4290123
            ],
            [
              -69.0048813,
              44.4290104
            ],
            [
              -69.0049013,
              44.4290281
            ],
            [
              -69.0051884,
              44.4290602
            ],
            [
              -69.0052342,
              44.4290581
            ],
            [
              -69.0052662,
              44.4290607
            ],
            [
              -69.0052622,
              44.4290703
            ],
            [
              -69.0054325,
              44.4290793
            ],
            [
              -69.0054405,
              44.4290142
            ],
            [
              -69.0054454,
              44.4290146
            ],
            [
              -69.0055203,
              44.4290218
            ],
            [
              -69.0055209,
              44.4290521
            ],
            [
              -69.0057241,
              44.4290666
            ],
            [
              -69.0057583,
              44.4288361
            ],
            [
              -69.0059085,
              44.4288456
            ],
            [
              -69.0059676,
              44.4286579
            ],
            [
              -69.0060078,
              44.4285028
            ],
            [
              -69.005981,
              44.4284051
            ]
          ]
        ]
      },
      "id": "way/1303564777"
    },
    {
      "type": "Feature",
      "properties": {
        "@id": "way/1303820227",
        "landuse": "grass"
      },
      "geometry": {
        "type": "Polygon",
        "coordinates": [
          [
            [
              -69.0056591,
              44.4272309
            ],
            [
              -69.0058053,
              44.42707
            ],
            [
              -69.0056242,
              44.4269896
            ],
            [
              -69.0054807,
              44.4271486
            ],
            [
              -69.0056591,
              44.4272309
            ]
          ]
        ]
      },
      "id": "way/1303820227"
    },
    {
      "type": "Feature",
      "properties": {
        "@id": "way/1303826443",
        "landuse": "grass"
      },
      "geometry": {
        "type": "Polygon",
        "coordinates": [
          [
            [
              -69.0063697,
              44.4251136
            ],
            [
              -69.0063201,
              44.4250753
            ],
            [
              -69.0062651,
              44.4251145
            ],
            [
              -69.0063188,
              44.425149
            ],
            [
              -69.0063697,
              44.4251136
            ]
          ]
        ]
      },
      "id": "way/1303826443"
    },
    {
      "type": "Feature",
      "properties": {
        "@id": "way/1303826444",
        "landuse": "civic_admin"
      },
      "geometry": {
        "type": "Polygon",
        "coordinates": [
          [
            [
              -69.0066998,
              44.4250243
            ],
            [
              -69.0063147,
              44.4247812
            ],
            [
              -69.0058038,
              44.4252496
            ],
            [
              -69.0051077,
              44.4248895
            ],
            [
              -69.0047296,
              44.4252007
            ],
            [
              -69.0052875,
              44.4254881
            ],
            [
              -69.005447,
              44.4255609
            ],
            [
              -69.0055286,
              44.425588
            ],
            [
              -69.0057235,
              44.4253537
            ],
            [
              -69.0060856,
              44.4255338
            ],
            [
              -69.0066998,
              44.4250243
            ]
          ]
        ]
      },
      "id": "way/1303826444"
    },
    {
      "type": "Feature",
      "properties": {
        "@id": "way/1304568242",
        "landuse": "civic_admin"
      },
      "geometry": {
        "type": "Polygon",
        "coordinates": [
          [
            [
              -69.0078256,
              44.425808
            ],
            [
              -69.0076085,
              44.4259623
            ],
            [
              -69.007709,
              44.4260968
            ],
            [
              -69.0075464,
              44.4263616
            ],
            [
              -69.0076767,
              44.4264009
            ],
            [
              -69.0082438,
              44.4265832
            ],
            [
              -69.0084627,
              44.4262452
            ],
            [
              -69.008468,
              44.426225
            ],
            [
              -69.0078256,
              44.425808
            ]
          ]
        ]
      },
      "id": "way/1304568242"
    },
    {
      "type": "Feature",
      "properties": {
        "@id": "way/1304569451",
        "landuse": "commercial"
      },
      "geometry": {
        "type": "Polygon",
        "coordinates": [
          [
            [
              -69.0083457,
              44.4266098
            ],
            [
              -69.008359,
              44.4266376
            ],
            [
              -69.0090387,
              44.4268616
            ],
            [
              -69.0090706,
              44.4268344
            ],
            [
              -69.0091849,
              44.4267199
            ],
            [
              -69.008515,
              44.4262636
            ],
            [
              -69.0083457,
              44.4266098
            ]
          ]
        ]
      },
      "id": "way/1304569451"
    },
    {
      "type": "Feature",
      "properties": {
        "@id": "way/1304571340",
        "landuse": "grass"
      },
      "geometry": {
        "type": "Polygon",
        "coordinates": [
          [
            [
              -69.007434,
              44.4271733
            ],
            [
              -69.0074702,
              44.4271336
            ],
            [
              -69.0075004,
              44.4270852
            ],
            [
              -69.0075118,
              44.4270474
            ],
            [
              -69.0074588,
              44.4269258
            ],
            [
              -69.0073797,
              44.426863
            ],
            [
              -69.0072664,
              44.4268252
            ],
            [
              -69.0071919,
              44.426806
            ],
            [
              -69.0071524,
              44.4268003
            ],
            [
              -69.0070967,
              44.4268022
            ],
            [
              -69.0070042,
              44.4268228
            ],
            [
              -69.0069049,
              44.426954
            ],
            [
              -69.0068506,
              44.426954
            ],
            [
              -69.006858,
              44.4269914
            ],
            [
              -69.0073428,
              44.4271743
            ],
            [
              -69.007434,
              44.4271733
            ]
          ]
        ]
      },
      "id": "way/1304571340"
    },
    {
      "type": "Feature",
      "properties": {
        "@id": "way/1304571341",
        "landuse": "grass"
      },
      "geometry": {
        "type": "Polygon",
        "coordinates": [
          [
            [
              -69.0075098,
              44.4272207
            ],
            [
              -69.007592,
              44.4272594
            ],
            [
              -69.0077769,
              44.427316
            ],
            [
              -69.0079906,
              44.4273682
            ],
            [
              -69.0079564,
              44.4273122
            ],
            [
              -69.0079168,
              44.427227
            ],
            [
              -69.0079188,
              44.4271901
            ],
            [
              -69.0079523,
              44.4271269
            ],
            [
              -69.0080067,
              44.4270699
            ],
            [
              -69.0078699,
              44.4270297
            ],
            [
              -69.0078055,
              44.4270321
            ],
            [
              -69.007772,
              44.4270234
            ],
            [
              -69.0077351,
              44.4269952
            ],
            [
              -69.0076781,
              44.4269454
            ],
            [
              -69.0075902,
              44.4269114
            ],
            [
              -69.0074454,
              44.4268654
            ],
            [
              -69.0074649,
              44.4268865
            ],
            [
              -69.0075433,
              44.4269894
            ],
            [
              -69.0075373,
              44.4271106
            ],
            [
              -69.0075004,
              44.4271877
            ],
            [
              -69.0075098,
              44.4272207
            ]
          ]
        ]
      },
      "id": "way/1304571341"
    },
    {
      "type": "Feature",
      "properties": {
        "@id": "way/1304572830",
        "landuse": "industrial",
        "man_made": "wastewater_plant",
        "name": "City of Belfast Water Pollution Control Plant"
      },
      "geometry": {
        "type": "Polygon",
        "coordinates": [
          [
            [
              -69.0076159,
              44.4278961
            ],
            [
              -69.0077138,
              44.427582
            ],
            [
              -69.0074979,
              44.4275638
            ],
            [
              -69.0073892,
              44.427558
            ],
            [
              -69.0072685,
              44.4275504
            ],
            [
              -69.0071607,
              44.4275688
            ],
            [
              -69.0059702,
              44.4277098
            ],
            [
              -69.0057101,
              44.4277979
            ],
            [
              -69.005635,
              44.4278171
            ],
            [
              -69.0056955,
              44.4282553
            ],
            [
              -69.0059583,
              44.4282696
            ],
            [
              -69.0067898,
              44.4280934
            ],
            [
              -69.0072471,
              44.4279852
            ],
            [
              -69.0076159,
              44.4278961
            ]
          ]
        ]
      },
      "id": "way/1304572830"
    },
    {
      "type": "Feature",
      "properties": {
        "@id": "way/1304573752",
        "landuse": "residential"
      },
      "geometry": {
        "type": "Polygon",
        "coordinates": [
          [
            [
              -69.0076159,
              44.4278961
            ],
            [
              -69.007746,
              44.4278947
            ],
            [
              -69.0078548,
              44.4279201
            ],
            [
              -69.0079289,
              44.4279717
            ],
            [
              -69.0081238,
              44.4280253
            ],
            [
              -69.0082504,
              44.4281002
            ],
            [
              -69.0084126,
              44.4281814
            ],
            [
              -69.0086658,
              44.4283269
            ],
            [
              -69.0088646,
              44.4284752
            ],
            [
              -69.0091059,
              44.4287549
            ],
            [
              -69.0092522,
              44.4289922
            ],
            [
              -69.0094642,
              44.4293637
            ],
            [
              -69.0098103,
              44.4293369
            ],
            [
              -69.0103434,
              44.4292486
            ],
            [
              -69.0102815,
              44.4291222
            ],
            [
              -69.0102091,
              44.4290063
            ],
            [
              -69.0100951,
              44.4287937
            ],
            [
              -69.0099368,
              44.4286462
            ],
            [
              -69.0094621,
              44.4281941
            ],
            [
              -69.009265,
              44.4280218
            ],
            [
              -69.0089941,
              44.4277383
            ],
            [
              -69.0088827,
              44.4276435
            ],
            [
              -69.0087178,
              44.4276032
            ],
            [
              -69.0083356,
              44.4275142
            ],
            [
              -69.0078447,
              44.4273897
            ],
            [
              -69.0077138,
              44.427582
            ],
            [
              -69.0076159,
              44.4278961
            ]
          ]
        ]
      },
      "id": "way/1304573752"
    },
    {
      "type": "Feature",
      "properties": {
        "@id": "way/1304574874",
        "addr:city": "Belfast",
        "addr:housenumber": "101",
        "addr:postcode": "04915",
        "addr:state": "ME",
        "addr:street": "Front Street",
        "industrial": "shipyard",
        "landuse": "industrial",
        "man_made": "works",
        "name": "Front Street Shipyard",
        "website": "https://frontstreetshipyard.com/"
      },
      "geometry": {
        "type": "Polygon",
        "coordinates": [
          [
            [
              -69.0104032,
              44.4308772
            ],
            [
              -69.0099999,
              44.430363
            ],
            [
              -69.0097909,
              44.4300566
            ],
            [
              -69.0091345,
              44.4289288
            ],
            [
              -69.009038,
              44.4288062
            ],
            [
              -69.0089173,
              44.4286559
            ],
            [
              -69.0087926,
              44.42854
            ],
            [
              -69.0086249,
              44.4284337
            ],
            [
              -69.0082548,
              44.4282029
            ],
            [
              -69.0080013,
              44.4280784
            ],
            [
              -69.0077988,
              44.4280324
            ],
            [
              -69.0076406,
              44.42804
            ],
            [
              -69.0074662,
              44.4280717
            ],
            [
              -69.006974,
              44.4281856
            ],
            [
              -69.0066508,
              44.4282699
            ],
            [
              -69.0061238,
              44.42838
            ],
            [
              -69.0060902,
              44.4284279
            ],
            [
              -69.0060446,
              44.4287143
            ],
            [
              -69.0060969,
              44.4287421
            ],
            [
              -69.0064403,
              44.4287689
            ],
            [
              -69.0068627,
              44.4287986
            ],
            [
              -69.0071685,
              44.4288263
            ],
            [
              -69.0074582,
              44.4288886
            ],
            [
              -69.0076888,
              44.4289844
            ],
            [
              -69.0080201,
              44.4291232
            ],
            [
              -69.0082467,
              44.4292736
            ],
            [
              -69.0085243,
              44.4294297
            ],
            [
              -69.0088006,
              44.4296231
            ],
            [
              -69.0089857,
              44.4297658
            ],
            [
              -69.0092378,
              44.429965
            ],
            [
              -69.0093572,
              44.4300752
            ],
            [
              -69.009447,
              44.4301844
            ],
            [
              -69.0093987,
              44.4302274
            ],
            [
              -69.0094591,
              44.4302744
            ],
            [
              -69.0096428,
              44.4304429
            ],
            [
              -69.0095771,
              44.4304899
            ],
            [
              -69.0095919,
              44.4305578
            ],
            [
              -69.0095543,
              44.4306038
            ],
            [
              -69.010084,
              44.4310477
            ],
            [
              -69.0104032,
              44.4308772
            ]
          ]
        ]
      },
      "id": "way/1304574874"
    },
    {
      "type": "Feature",
      "properties": {
        "@id": "way/1376578013",
        "landuse": "farmland"
      },
      "geometry": {
        "type": "Polygon",
        "coordinates": [
          [
            [
              -69.0239935,
              44.4167837
            ],
            [
              -69.0239325,
              44.4166486
            ],
            [
              -69.0238166,
              44.4166268
            ],
            [
              -69.0232856,
              44.4158117
            ],
            [
              -69.0230049,
              44.4157681
            ],
            [
              -69.0226143,
              44.4157768
            ],
            [
              -69.0222787,
              44.4158117
            ],
            [
              -69.0218149,
              44.4159424
            ],
            [
              -69.0215159,
              44.415925
            ],
            [
              -69.0212657,
              44.4160253
            ],
            [
              -69.0211192,
              44.4161953
            ],
            [
              -69.0210399,
              44.4162606
            ],
            [
              -69.0208751,
              44.4163914
            ],
            [
              -69.0203137,
              44.4170409
            ],
            [
              -69.0205273,
              44.4171281
            ],
            [
              -69.0206066,
              44.4171934
            ],
            [
              -69.0207836,
              44.4172196
            ],
            [
              -69.0209789,
              44.4173504
            ],
            [
              -69.0213023,
              44.4173199
            ],
            [
              -69.0218698,
              44.417237
            ],
            [
              -69.0224496,
              44.4170932
            ],
            [
              -69.0227852,
              44.4170365
            ],
            [
              -69.0230354,
              44.4170278
            ],
            [
              -69.0232612,
              44.4169755
            ],
            [
              -69.023487,
              44.4169929
            ],
            [
              -69.0236213,
              44.4169668
            ],
            [
              -69.0236335,
              44.416884
            ],
            [
              -69.0237799,
              44.4168229
            ],
            [
              -69.0239935,
              44.4167837
            ]
          ]
        ]
      },
      "id": "way/1376578013"
    }
  ]
}