{
  "type": "FeatureCollection",
  "generator": "overpass-turbo",
  "copyright": "The data included in this document is from www.openstreetmap.org. The data is made available under ODbL.",
  "timestamp": "2026-04-25T11:46:31Z",
  "features": [
    {
      "type": "Feature",
      "properties": {
        "@id": "relation/18088912",
        "name": "Belfast DASH",
        "route": "bus",
        "type": "route"
      },
      "geometry": {
        "type": "MultiLineString",
        "coordinates": [
          [
            [
              -69.0092845,
              44.4252537
            ],
            [
              -69.0090454,
              44.4252848
            ],
            [
              -69.0089659,
              44.4252951
            ],
            [
              -69.0082621,
              44.4253954
            ],
            [
              -69.0077167,
              44.4254781
            ],
            [
              -69.0075898,
              44.425501
            ],
            [
              -69.0075748,
              44.4255037
            ],
            [
              -69.0074424,
              44.4255159
            ],
            [
              -69.0073193,
              44.4255817
            ],
            [
              -69.0069321,
              44.425932
            ],
            [
              -69.0068057,
              44.4260556
            ],
            [
              -69.0067848,
              44.4260787
            ],
            [
              -69.0067259,
              44.4261439
            ],
            [
              -69.0068371,
              44.4261716
            ],
            [
              -69.0071769,
              44.4262758
            ],
            [
              -69.0077431,
              44.4264626
            ],
            [
              -69.0082593,
              44.4266327
            ],
            [
              -69.0089708,
              44.4268731
            ],
            [
              -69.0093085,
              44.426982
            ],
            [
              -69.0096753,
              44.4271034
            ],
            [
              -69.009798,
              44.4271551
            ],
            [
              -69.0099958,
              44.4272542
            ],
            [
              -69.0102426,
              44.4274041
            ],
            [
              -69.0106966,
              44.4276849
            ],
            [
              -69.0111079,
              44.4279391
            ],
            [
              -69.0116826,
              44.4283024
            ],
            [
              -69.0120685,
              44.4285505
            ],
            [
              -69.0123287,
              44.4287365
            ],
            [
              -69.0125714,
              44.4289293
            ],
            [
              -69.0128142,
              44.4291534
            ],
            [
              -69.0129731,
              44.4293262
            ],
            [
              -69.0131195,
              44.4294828
            ],
            [
              -69.0132507,
              44.4296231
            ],
            [
              -69.0135367,
              44.4299473
            ],
            [
              -69.0138679,
              44.4303229
            ],
            [
              -69.0144107,
              44.430916
            ],
            [
              -69.0146419,
              44.431163
            ],
            [
              -69.0146895,
              44.4312138
            ],
            [
              -69.014757,
              44.43129
            ],
            [
              -69.0146749,
              44.431324
            ],
            [
              -69.0145522,
              44.4313709
            ],
            [
              -69.0143745,
              44.4314264
            ],
            [
              -69.0141164,
              44.4314992
            ],
            [
              -69.0137429,
              44.4315983
            ],
            [
              -69.0132755,
              44.4317132
            ],
            [
              -69.0130696,
              44.4317693
            ],
            [
              -69.0129516,
              44.4317903
            ],
            [
              -69.0128484,
              44.4317793
            ],
            [
              -69.0127632,
              44.4317448
            ],
            [
              -69.0126915,
              44.4316816
            ],
            [
              -69.0125694,
              44.43155
            ],
            [
              -69.012381,
              44.4312861
            ],
            [
              -69.0120994,
              44.4308777
            ],
            [
              -69.0119458,
              44.430689
            ],
            [
              -69.0117875,
              44.4305296
            ],
            [
              -69.0116199,
              44.4304017
            ],
            [
              -69.0114479,
              44.4304844
            ],
            [
              -69.0110352,
              44.4306828
            ],
            [
              -69.0108078,
              44.4308103
            ],
            [
              -69.0105533,
              44.4309483
            ],
            [
              -69.0104471,
              44.4308437
            ],
            [
              -69.0104267,
              44.4308205
            ],
            [
              -69.0103123,
              44.4306928
            ],
            [
              -69.010193,
              44.430554
            ],
            [
              -69.0100642,
              44.4303888
            ],
            [
              -69.0099978,
              44.4303035
            ],
            [
              -69.0099321,
              44.4302164
            ],
            [
              -69.0098572,
              44.4301072
            ],
            [
              -69.0098034,
              44.4300287
            ],
            [
              -69.0097182,
              44.4298779
            ],
            [
              -69.0095948,
              44.4296667
            ],
            [
              -69.0092081,
              44.4290083
            ],
            [
              -69.0091516,
              44.428912
            ],
            [
              -69.0090591,
              44.4287746
            ],
            [
              -69.0089826,
              44.4286616
            ],
            [
              -69.0088874,
              44.4285663
            ],
            [
              -69.0087406,
              44.4284581
            ],
            [
              -69.0084898,
              44.428311
            ],
            [
              -69.0081143,
              44.4280884
            ],
            [
              -69.0079748,
              44.4280343
            ],
            [
              -69.0078259,
              44.428007
            ],
            [
              -69.0076865,
              44.4280046
            ],
            [
              -69.0075094,
              44.4280276
            ],
            [
              -69.0071862,
              44.4281047
            ],
            [
              -69.0068207,
              44.4281912
            ],
            [
              -69.0067839,
              44.4282004
            ],
            [
              -69.0065534,
              44.428257
            ],
            [
              -69.0060349,
              44.4283752
            ],
            [
              -69.0059289,
              44.4283853
            ],
            [
              -69.0058364,
              44.4283867
            ],
            [
              -69.0055756,
              44.4283676
            ],
            [
              -69.0054765,
              44.4283576
            ],
            [
              -69.0054056,
              44.4283486
            ],
            [
              -69.005249,
              44.4283206
            ],
            [
              -69.0051088,
              44.4282876
            ],
            [
              -69.0049452,
              44.4282387
            ],
            [
              -69.0048631,
              44.4282102
            ],
            [
              -69.0047166,
              44.4281588
            ],
            [
              -69.0046098,
              44.4281193
            ],
            [
              -69.0045791,
              44.4281001
            ],
            [
              -69.004384,
              44.4279002
            ],
            [
              -69.0043087,
              44.427801
            ],
            [
              -69.0042593,
              44.4277359
            ],
            [
              -69.0041761,
              44.4276268
            ],
            [
              -69.003979,
              44.427387
            ],
            [
              -69.0038817,
              44.4272911
            ],
            [
              -69.0038053,
              44.4272235
            ],
            [
              -69.0037255,
              44.4271637
            ],
            [
              -69.0036484,
              44.4271101
            ],
            [
              -69.0031374,
              44.426817
            ],
            [
              -69.0030372,
              44.4267598
            ],
            [
              -69.0031019,
              44.4266891
            ],
            [
              -69.0034415,
              44.4263804
            ],
            [
              -69.0035376,
              44.4262988
            ],
            [
              -69.0035896,
              44.4262626
            ],
            [
              -69.0037356,
              44.4261303
            ],
            [
              -69.0039397,
              44.4259288
            ],
            [
              -69.0040916,
              44.4257711
            ],
            [
              -69.0043203,
              44.425581
            ],
            [
              -69.0046397,
              44.4252879
            ],
            [
              -69.0046714,
              44.4252188
            ],
            [
              -69.0047158,
              44.4251593
            ],
            [
              -69.0056096,
              44.4244057
            ],
            [
              -69.0056352,
              44.4243838
            ],
            [
              -69.0057103,
              44.4243282
            ],
            [
              -69.0065968,
              44.4236597
            ],
            [
              -69.0074761,
              44.4230085
            ],
            [
              -69.0080394,
              44.4225718
            ],
            [
              -69.0085722,
              44.4221501
            ],
            [
              -69.0093202,
              44.4216148
            ],
            [
              -69.0096558,
              44.4213647
            ],
            [
              -69.0098365,
              44.4212632
            ],
            [
              -69.0100264,
              44.4211904
            ],
            [
              -69.0102542,
              44.4211279
            ],
            [
              -69.0104857,
              44.4210855
            ],
            [
              -69.0114848,
              44.4209491
            ],
            [
              -69.0133358,
              44.4207018
            ],
            [
              -69.0150095,
              44.420472
            ],
            [
              -69.0152011,
              44.4204428
            ],
            [
              -69.0159644,
              44.4203264
            ],
            [
              -69.0161789,
              44.420311
            ],
            [
              -69.0163667,
              44.4203609
            ],
            [
              -69.0165598,
              44.4204528
            ],
            [
              -69.0174035,
              44.4196729
            ],
            [
              -69.017799,
              44.4193072
            ],
            [
              -69.0180429,
              44.4190824
            ],
            [
              -69.0181482,
              44.4191425
            ],
            [
              -69.0183929,
              44.4193003
            ],
            [
              -69.0185211,
              44.4193789
            ],
            [
              -69.0179838,
              44.4198703
            ],
            [
              -69.0182023,
              44.4199903
            ],
            [
              -69.0182433,
              44.4200128
            ],
            [
              -69.0183017,
              44.4200449
            ],
            [
              -69.018401,
              44.4200995
            ],
            [
              -69.0184406,
              44.4201212
            ],
            [
              -69.0186313,
              44.4202258
            ],
            [
              -69.0186581,
              44.4202424
            ],
            [
              -69.0187253,
              44.420284
            ],
            [
              -69.0187612,
              44.4203178
            ],
            [
              -69.0187807,
              44.4203498
            ],
            [
              -69.0188047,
              44.4203892
            ],
            [
              -69.0188355,
              44.4204212
            ],
            [
              -69.0189467,
              44.4204852
            ],
            [
              -69.0189951,
              44.4205131
            ],
            [
              -69.0191788,
              44.4206188
            ],
            [
              -69.0191863,
              44.4206231
            ],
            [
              -69.0193595,
              44.4207228
            ],
            [
              -69.0195493,
              44.420832
            ],
            [
              -69.0196229,
              44.4208744
            ],
            [
              -69.0197135,
              44.4209315
            ],
            [
              -69.0196629,
              44.4209772
            ],
            [
              -69.0192935,
              44.4213256
            ],
            [
              -69.019183,
              44.4214439
            ],
            [
              -69.0191059,
              44.4215515
            ],
            [
              -69.0191037,
              44.4216226
            ],
            [
              -69.0191216,
              44.4217143
            ],
            [
              -69.0191603,
              44.4218567
            ],
            [
              -69.0192959,
              44.4223472
            ],
            [
              -69.0196909,
              44.4238213
            ],
            [
              -69.0197149,
              44.423911
            ],
            [
              -69.0198234,
              44.4238979
            ],
            [
              -69.0204049,
              44.4238277
            ],
            [
              -69.0205181,
              44.4238144
            ],
            [
              -69.0206934,
              44.4237905
            ],
            [
              -69.0208795,
              44.4237652
            ],
            [
              -69.0211888,
              44.4237267
            ],
            [
              -69.0218641,
              44.4236379
            ],
            [
              -69.0221202,
              44.4236031
            ],
            [
              -69.022261,
              44.4235841
            ],
            [
              -69.0226057,
              44.4235433
            ],
            [
              -69.0229328,
              44.4235045
            ],
            [
              -69.0234558,
              44.4234519
            ],
            [
              -69.0245002,
              44.4233303
            ],
            [
              -69.0252843,
              44.4232218
            ],
            [
              -69.0258409,
              44.4231447
            ],
            [
              -69.0263748,
              44.4230809
            ],
            [
              -69.0265912,
              44.4230551
            ],
            [
              -69.027071,
              44.4229978
            ],
            [
              -69.0283262,
              44.4228356
            ],
            [
              -69.0289118,
              44.422714
            ],
            [
              -69.0292527,
              44.4226432
            ],
            [
              -69.0299353,
              44.4224368
            ],
            [
              -69.0297649,
              44.4221083
            ],
            [
              -69.0296965,
              44.4218748
            ],
            [
              -69.0296892,
              44.4212615
            ],
            [
              -69.0296746,
              44.4209792
            ],
            [
              -69.0295916,
              44.4206795
            ],
            [
              -69.0294282,
              44.4203589
            ],
            [
              -69.0292233,
              44.4200679
            ],
            [
              -69.0286011,
              44.4193587
            ],
            [
              -69.0281181,
              44.4188168
            ],
            [
              -69.0277936,
              44.418585
            ],
            [
              -69.0275887,
              44.4184753
            ],
            [
              -69.0274715,
              44.4184301
            ],
            [
              -69.0273399,
              44.4183794
            ],
            [
              -69.0269568,
              44.4182923
            ],
            [
              -69.0265641,
              44.4182749
            ],
            [
              -69.0261274,
              44.4182749
            ],
            [
              -69.0256858,
              44.4183359
            ],
            [
              -69.0253662,
              44.4184212
            ],
            [
              -69.0248685,
              44.4185972
            ],
            [
              -69.0245313,
              44.4187383
            ],
            [
              -69.0243005,
              44.4188349
            ],
            [
              -69.0240024,
              44.4189597
            ],
            [
              -69.0236965,
              44.4190678
            ],
            [
              -69.0235487,
              44.41912
            ],
            [
              -69.0233608,
              44.4191496
            ],
            [
              -69.0231876,
              44.4191531
            ],
            [
              -69.0230234,
              44.4191801
            ],
            [
              -69.0229436,
              44.4191932
            ],
            [
              -69.0227872,
              44.4192419
            ],
            [
              -69.022535,
              44.4193204
            ],
            [
              -69.022268,
              44.4194035
            ],
            [
              -69.0217329,
              44.4184604
            ],
            [
              -69.0216324,
              44.4183315
            ],
            [
              -69.0216117,
              44.4183169
            ],
            [
              -69.0215287,
              44.4182584
            ],
            [
              -69.0212924,
              44.4182147
            ],
            [
              -69.0212267,
              44.4182025
            ],
            [
              -69.0211572,
              44.4180815
            ],
            [
              -69.0210509,
              44.4179134
            ],
            [
              -69.0209851,
              44.4178182
            ],
            [
              -69.0208212,
              44.4176001
            ],
            [
              -69.0200283,
              44.4171856
            ],
            [
              -69.0224226,
              44.4144886
            ],
            [
              -69.0230995,
              44.4137261
            ],
            [
              -69.0232488,
              44.413778
            ],
            [
              -69.0233427,
              44.4138014
            ],
            [
              -69.0234519,
              44.413817
            ],
            [
              -69.023525,
              44.4138203
            ],
            [
              -69.0236132,
              44.4138143
            ],
            [
              -69.023637,
              44.413811
            ],
            [
              -69.0236853,
              44.4138069
            ],
            [
              -69.0237415,
              44.413806
            ],
            [
              -69.0237944,
              44.4138119
            ],
            [
              -69.0238559,
              44.4138389
            ],
            [
              -69.0239097,
              44.4138725
            ],
            [
              -69.0239328,
              44.4138868
            ],
            [
              -69.0239436,
              44.4138953
            ],
            [
              -69.0239735,
              44.4139189
            ],
            [
              -69.0239848,
              44.4139487
            ],
            [
              -69.0239819,
              44.4139766
            ],
            [
              -69.0239664,
              44.4139956
            ],
            [
              -69.0239314,
              44.4140226
            ],
            [
              -69.0238866,
              44.4140416
            ],
            [
              -69.0238489,
              44.4140466
            ],
            [
              -69.0238042,
              44.4140446
            ],
            [
              -69.023782,
              44.4140401
            ],
            [
              -69.023765,
              44.4140366
            ],
            [
              -69.0237273,
              44.4140206
            ],
            [
              -69.0237063,
              44.4140049
            ],
            [
              -69.0236979,
              44.4139986
            ],
            [
              -69.0236672,
              44.4139737
            ],
            [
              -69.0236448,
              44.4139507
            ],
            [
              -69.0236238,
              44.4139218
            ],
            [
              -69.0236089,
              44.4138932
            ],
            [
              -69.0236034,
              44.4138639
            ],
            [
              -69.0236132,
              44.4138143
            ]
          ],
          [
            [
              -69.0200283,
              44.4171856
            ],
            [
              -69.0197986,
              44.4174327
            ],
            [
              -69.0190585,
              44.4181361
            ],
            [
              -69.0181062,
              44.4171833
            ],
            [
              -69.016859,
              44.4161426
            ],
            [
              -69.0155416,
              44.4153456
            ],
            [
              -69.013941,
              44.4145294
            ],
            [
              -69.012337,
              44.4139251
            ],
            [
              -69.0111765,
              44.4135839
            ],
            [
              -69.0051103,
              44.4120965
            ],
            [
              -69.0050832,
              44.4124268
            ],
            [
              -69.0049601,
              44.4131496
            ],
            [
              -69.0049205,
              44.4133818
            ],
            [
              -69.0049601,
              44.4131496
            ],
            [
              -69.0052402,
              44.4131886
            ],
            [
              -69.0055428,
              44.4132062
            ],
            [
              -69.0058061,
              44.4131688
            ],
            [
              -69.0060481,
              44.4130835
            ],
            [
              -69.0063228,
              44.4129807
            ],
            [
              -69.006488,
              44.4129457
            ],
            [
              -69.0067611,
              44.4129737
            ],
            [
              -69.0069361,
              44.4130742
            ],
            [
              -69.0071225,
              44.4131898
            ],
            [
              -69.0072255,
              44.4132155
            ],
            [
              -69.0071225,
              44.4131898
            ],
            [
              -69.0069361,
              44.4130742
            ],
            [
              -69.0067611,
              44.4129737
            ],
            [
              -69.006488,
              44.4129457
            ],
            [
              -69.0063228,
              44.4129807
            ],
            [
              -69.0060481,
              44.4130835
            ],
            [
              -69.0058061,
              44.4131688
            ],
            [
              -69.0055428,
              44.4132062
            ],
            [
              -69.0052402,
              44.4131886
            ],
            [
              -69.0049601,
              44.4131496
            ],
            [
              -69.0049205,
              44.4133818
            ],
            [
              -69.0048606,
              44.4152503
            ],
            [
              -69.0048699,
              44.4157735
            ],
            [
              -69.0048905,
              44.4165248
            ],
            [
              -69.0049513,
              44.4181081
            ],
            [
              -69.0049733,
              44.418218
            ],
            [
              -69.0049984,
              44.4183262
            ],
            [
              -69.0051565,
              44.4190087
            ],
            [
              -69.0052285,
              44.419206
            ],
            [
              -69.0053171,
              44.4194895
            ],
            [
              -69.0053814,
              44.4196447
            ],
            [
              -69.0054834,
              44.4197826
            ],
            [
              -69.0064727,
              44.4205506
            ],
            [
              -69.0070138,
              44.4209594
            ],
            [
              -69.0075644,
              44.4213644
            ],
            [
              -69.0085722,
              44.4221501
            ],
            [
              -69.008878,
              44.4223761
            ],
            [
              -69.0091842,
              44.4226066
            ],
            [
              -69.0093339,
              44.4227248
            ],
            [
              -69.0098167,
              44.4230772
            ],
            [
              -69.0100421,
              44.4232228
            ],
            [
              -69.0104283,
              44.423514
            ],
            [
              -69.0108199,
              44.4238167
            ],
            [
              -69.0111651,
              44.4240847
            ],
            [
              -69.0117116,
              44.424509
            ],
            [
              -69.0121784,
              44.4248715
            ]
          ],
          [
            [
              -69.0049205,
              44.4133818
            ],
            [
              -69.0012657,
              44.4138482
            ],
            [
              -69.000687,
              44.413922
            ],
            [
              -69.0005327,
              44.4139417
            ],
            [
              -68.9991414,
              44.4141136
            ],
            [
              -68.9989546,
              44.4141379
            ],
            [
              -68.9983636,
              44.4142185
            ],
            [
              -68.9973669,
              44.4143408
            ],
            [
              -68.9962485,
              44.4145121
            ],
            [
              -68.9961146,
              44.4145315
            ],
            [
              -68.9962485,
              44.4145121
            ],
            [
              -68.9973669,
              44.4143408
            ],
            [
              -68.9983636,
              44.4142185
            ],
            [
              -68.9989546,
              44.4141379
            ],
            [
              -68.9991414,
              44.4141136
            ],
            [
              -69.0005327,
              44.4139417
            ],
            [
              -69.000687,
              44.413922
            ],
            [
              -69.0012657,
              44.4138482
            ],
            [
              -69.0049205,
              44.4133818
            ]
          ],
          [
            [
              -68.9954817,
              44.4134391
            ],
            [
              -68.9958123,
              44.4140096
            ],
            [
              -68.9961146,
              44.4145315
            ],
            [
              -68.9958123,
              44.4140096
            ],
            [
              -68.9954817,
              44.4134391
            ]
          ],
          [
            [
              -68.9951871,
              44.4129222
            ],
            [
              -68.9952,
              44.4129448
            ],
            [
              -68.9954817,
              44.4134391
            ],
            [
              -68.9952327,
              44.4135129
            ],
            [
              -68.9949076,
              44.4130296
            ],
            [
              -68.9948067,
              44.4130456
            ],
            [
              -68.9946286,
              44.4126611
            ],
            [
              -68.9946001,
              44.4125709
            ],
            [
              -68.9945652,
              44.4124823
            ],
            [
              -68.9945432,
              44.4124835
            ],
            [
              -68.9945217,
              44.4124801
            ],
            [
              -68.9945065,
              44.4124745
            ],
            [
              -68.9944935,
              44.4124666
            ],
            [
              -68.9944825,
              44.4124558
            ],
            [
              -68.9944756,
              44.4124435
            ],
            [
              -68.9944731,
              44.4124315
            ],
            [
              -68.9944744,
              44.4124195
            ],
            [
              -68.9944789,
              44.4124089
            ],
            [
              -68.9944863,
              44.4123991
            ],
            [
              -68.9945,
              44.4123883
            ],
            [
              -68.9945172,
              44.4123806
            ],
            [
              -68.9945367,
              44.4123764
            ],
            [
              -68.9942982,
              44.4118891
            ],
            [
              -68.9945698,
              44.4118489
            ],
            [
              -68.9950714,
              44.4127192
            ],
            [
              -68.9951871,
              44.4129222
            ]
          ],
          [
            [
              -69.0229328,
              44.4235045
            ],
            [
              -69.0230602,
              44.423644
            ],
            [
              -69.0231563,
              44.4237352
            ],
            [
              -69.0230602,
              44.423644
            ],
            [
              -69.0229328,
              44.4235045
            ]
          ],
          [
            [
              -69.0231563,
              44.4237352
            ],
            [
              -69.0232903,
              44.4242792
            ],
            [
              -69.0234579,
              44.4250085
            ],
            [
              -69.0231975,
              44.4250348
            ],
            [
              -69.0234579,
              44.4250085
            ],
            [
              -69.0232903,
              44.4242792
            ],
            [
              -69.0231563,
              44.4237352
            ]
          ],
          [
            [
              -69.0101384,
              44.4180422
            ],
            [
              -69.0102565,
              44.4182851
            ],
            [
              -69.0107566,
              44.4190752
            ],
            [
              -69.0108312,
              44.4192417
            ],
            [
              -69.010964,
              44.4195379
            ],
            [
              -69.0111427,
              44.4200222
            ],
            [
              -69.0114848,
              44.4209491
            ],
            [
              -69.0111427,
              44.4200222
            ],
            [
              -69.010964,
              44.4195379
            ],
            [
              -69.0108312,
              44.4192417
            ],
            [
              -69.0107566,
              44.4190752
            ],
            [
              -69.0102565,
              44.4182851
            ],
            [
              -69.0101384,
              44.4180422
            ]
          ]
        ]
      },
      "id": "relation/18088912"
    },
    {
      "type": "Feature",
      "properties": {
        "@id": "node/12199265171",
        "@relations": [
          {
            "role": "",
            "rel": 18088912,
            "reltags": {
              "name": "Belfast DASH",
              "route": "bus",
              "type": "route"
            }
          }
        ]
      },
      "geometry": {
        "type": "Point",
        "coordinates": [
          -69.0237015,
          44.4140619
        ]
      },
      "id": "node/12199265171"
    },
    {
      "type": "Feature",
      "properties": {
        "@id": "node/12199265170",
        "@relations": [
          {
            "role": "",
            "rel": 18088912,
            "reltags": {
              "name": "Belfast DASH",
              "route": "bus",
              "type": "route"
            }
          }
        ]
      },
      "geometry": {
        "type": "Point",
        "coordinates": [
          -69.0236436,
          44.4189184
        ]
      },
      "id": "node/12199265170"
    },
    {
      "type": "Feature",
      "properties": {
        "@id": "node/12199265168",
        "@relations": [
          {
            "role": "",
            "rel": 18088912,
            "reltags": {
              "name": "Belfast DASH",
              "route": "bus",
              "type": "route"
            }
          }
        ]
      },
      "geometry": {
        "type": "Point",
        "coordinates": [
          -69.0183469,
          44.4200205
        ]
      },
      "id": "node/12199265168"
    },
    {
      "type": "Feature",
      "properties": {
        "@id": "node/12199265167",
        "@relations": [
          {
            "role": "",
            "rel": 18088912,
            "reltags": {
              "name": "Belfast DASH",
              "route": "bus",
              "type": "route"
            }
          }
        ]
      },
      "geometry": {
        "type": "Point",
        "coordinates": [
          -69.009998,
          44.4180477
        ]
      },
      "id": "node/12199265167"
    },
    {
      "type": "Feature",
      "properties": {
        "@id": "node/12199265162",
        "@relations": [
          {
            "role": "",
            "rel": 18088912,
            "reltags": {
              "name": "Belfast DASH",
              "route": "bus",
              "type": "route"
            }
          }
        ]
      },
      "geometry": {
        "type": "Point",
        "coordinates": [
          -69.0076836,
          44.4133116
        ]
      },
      "id": "node/12199265162"
    },
    {
      "type": "Feature",
      "properties": {
        "@id": "node/12199265169",
        "@relations": [
          {
            "role": "",
            "rel": 18088912,
            "reltags": {
              "name": "Belfast DASH",
              "route": "bus",
              "type": "route"
            }
          }
        ]
      },
      "geometry": {
        "type": "Point",
        "coordinates": [
          -69.0231906,
          44.425001
        ]
      },
      "id": "node/12199265169"
    },
    {
      "type": "Feature",
      "properties": {
        "@id": "node/12199265163",
        "@relations": [
          {
            "role": "",
            "rel": 18088912,
            "reltags": {
              "name": "Belfast DASH",
              "route": "bus",
              "type": "route"
            }
          }
        ]
      },
      "geometry": {
        "type": "Point",
        "coordinates": [
          -69.0116462,
          44.4245356
        ]
      },
      "id": "node/12199265163"
    },
    {
      "type": "Feature",
      "properties": {
        "@id": "node/12199265165",
        "@relations": [
          {
            "role": "",
            "rel": 18088912,
            "reltags": {
              "name": "Belfast DASH",
              "route": "bus",
              "type": "route"
            }
          }
        ]
      },
      "geometry": {
        "type": "Point",
        "coordinates": [
          -69.0137087,
          44.4315569
        ]
      },
      "id": "node/12199265165"
    },
    {
      "type": "Feature",
      "properties": {
        "@id": "node/12199264789",
        "@relations": [
          {
            "role": "",
            "rel": 18088912,
            "reltags": {
              "name": "Belfast DASH",
              "route": "bus",
              "type": "route"
            }
          }
        ]
      },
      "geometry": {
        "type": "Point",
        "coordinates": [
          -69.0092845,
          44.4252537
        ]
      },
      "id": "node/12199264789"
    },
    {
      "type": "Feature",
      "properties": {
        "@id": "node/12199265166",
        "@relations": [
          {
            "role": "",
            "rel": 18088912,
            "reltags": {
              "name": "Belfast DASH",
              "route": "bus",
              "type": "route"
            }
          }
        ]
      },
      "geometry": {
        "type": "Point",
        "coordinates": [
          -69.0043779,
          44.4277695
        ]
      },
      "id": "node/12199265166"
    },
    {
      "type": "Feature",
      "properties": {
        "@id": "node/12199265172",
        "@relations": [
          {
            "role": "",
            "rel": 18088912,
            "reltags": {
              "name": "Belfast DASH",
              "route": "bus",
              "type": "route"
            }
          }
        ]
      },
      "geometry": {
        "type": "Point",
        "coordinates": [
          -68.9954442,
          44.4128546
        ]
      },
      "id": "node/12199265172"
    },
    {
      "type": "Feature",
      "properties": {
        "@id": "node/12199265173",
        "@relations": [
          {
            "role": "",
            "rel": 18088912,
            "reltags": {
              "name": "Belfast DASH",
              "route": "bus",
              "type": "route"
            }
          }
        ]
      },
      "geometry": {
        "type": "Point",
        "coordinates": [
          -68.9944355,
          44.4124118
        ]
      },
      "id": "node/12199265173"
    }
  ]
}