{
  "type": "FeatureCollection",
  "generator": "overpass-turbo",
  "copyright": "The data included in this document is from www.openstreetmap.org. The data is made available under ODbL.",
  "timestamp": "2026-04-25T11:50:39Z",
  "features": [
    {
      "type": "Feature",
      "properties": {
        "@id": "relation/132579",
        "admin_level": "8",
        "border_type": "city",
        "boundary": "administrative",
        "gnis:feature_id": "582347",
        "name": "Belfast",
        "population": "7069",
        "population:date": "2023",
        "source": "TIGER/Line® 2008 Place Shapefiles (http://www.census.gov/geo/www/tiger/)",
        "source:population": "Census",
        "type": "boundary",
        "wikidata": "Q2075675",
        "wikipedia": "en:Belfast, Maine"
      },
      "geometry": {
        "type": "Polygon",
        "coordinates": [
          [
            [
              -69.0656472,
              44.3729634
            ],
            [
              -69.060564,
              44.3674294
            ],
            [
              -69.0547655,
              44.3698226
            ],
            [
              -69.0418781,
              44.3750857
            ],
            [
              -69.0417883,
              44.3751218
            ],
            [
              -69.0271397,
              44.3815048
            ],
            [
              -69.0177921,
              44.3856794
            ],
            [
              -69.0066898,
              44.3906187
            ],
            [
              -68.9994785,
              44.3960071
            ],
            [
              -68.9992133,
              44.3960792
            ],
            [
              -68.9989916,
              44.3960792
            ],
            [
              -68.9986973,
              44.3958181
            ],
            [
              -68.9981781,
              44.3953409
            ],
            [
              -68.9978988,
              44.3950303
            ],
            [
              -68.9977866,
              44.3946567
            ],
            [
              -68.9976959,
              44.3942065
            ],
            [
              -68.9973044,
              44.3935268
            ],
            [
              -68.9971333,
              44.3933333
            ],
            [
              -68.9970325,
              44.3932297
            ],
            [
              -68.9969477,
              44.3931892
            ],
            [
              -68.9967405,
              44.3931352
            ],
            [
              -68.9961061,
              44.3931577
            ],
            [
              -68.9957553,
              44.3932297
            ],
            [
              -68.995184,
              44.3933872
            ],
            [
              -68.9943619,
              44.3936708
            ],
            [
              -68.9934492,
              44.3940398
            ],
            [
              -68.9925522,
              44.3944224
            ],
            [
              -68.9919059,
              44.3946924
            ],
            [
              -68.9911972,
              44.3948995
            ],
            [
              -68.9908628,
              44.395039
            ],
            [
              -68.9907098,
              44.3950525
            ],
            [
              -68.9902052,
              44.3950614
            ],
            [
              -68.989763,
              44.3949218
            ],
            [
              -68.9897367,
              44.3949128
            ],
            [
              -68.9895083,
              44.3948273
            ],
            [
              -68.9889445,
              44.3945481
            ],
            [
              -68.9888496,
              44.3944356
            ],
            [
              -68.988675,
              44.394233
            ],
            [
              -68.9885979,
              44.3941835
            ],
            [
              -68.9885016,
              44.3940845
            ],
            [
              -68.9882772,
              44.3938864
            ],
            [
              -68.9880826,
              44.3936343
            ],
            [
              -68.9878657,
              44.3934452
            ],
            [
              -68.9876115,
              44.3933101
            ],
            [
              -68.98748,
              44.3932066
            ],
            [
              -68.9555291,
              44.4004909
            ],
            [
              -68.9577665,
              44.4286032
            ],
            [
              -68.9578211,
              44.4285627
            ],
            [
              -68.9578926,
              44.4285267
            ],
            [
              -68.96081,
              44.4393041
            ],
            [
              -68.9623782,
              44.445053
            ],
            [
              -68.9630971,
              44.4478891
            ],
            [
              -68.9636705,
              44.4478307
            ],
            [
              -68.9645349,
              44.4512386
            ],
            [
              -68.9656676,
              44.4552542
            ],
            [
              -68.9661804,
              44.45755
            ],
            [
              -68.9682974,
              44.4572896
            ],
            [
              -68.9691385,
              44.4571908
            ],
            [
              -68.9692705,
              44.4578975
            ],
            [
              -68.970247,
              44.4616699
            ],
            [
              -68.9714754,
              44.4665002
            ],
            [
              -68.9720648,
              44.4664689
            ],
            [
              -68.9744963,
              44.4662084
            ],
            [
              -68.9746288,
              44.4669556
            ],
            [
              -68.9764977,
              44.4738161
            ],
            [
              -68.9768049,
              44.4750271
            ],
            [
              -68.9779825,
              44.4748742
            ],
            [
              -68.981452,
              44.4873122
            ],
            [
              -68.9782253,
              44.4888601
            ],
            [
              -68.9799842,
              44.4907344
            ],
            [
              -68.9811911,
              44.4920206
            ],
            [
              -68.9820925,
              44.4916111
            ],
            [
              -68.9927188,
              44.4866967
            ],
            [
              -68.9974448,
              44.4844643
            ],
            [
              -68.9994789,
              44.4835685
            ],
            [
              -69.0087181,
              44.4794494
            ],
            [
              -69.0369959,
              44.467002
            ],
            [
              -69.0402523,
              44.4655784
            ],
            [
              -69.0475157,
              44.4623931
            ],
            [
              -69.0575821,
              44.4579006
            ],
            [
              -69.076124,
              44.4495127
            ],
            [
              -69.0888368,
              44.4436382
            ],
            [
              -69.0996653,
              44.4386462
            ],
            [
              -69.1072463,
              44.4351327
            ],
            [
              -69.1119841,
              44.4328955
            ],
            [
              -69.1182822,
              44.4298372
            ],
            [
              -69.1149325,
              44.4264915
            ],
            [
              -69.1123659,
              44.4239193
            ],
            [
              -69.1089829,
              44.4203079
            ],
            [
              -69.104467,
              44.4155046
            ],
            [
              -69.1028004,
              44.4137325
            ],
            [
              -69.1000146,
              44.4106831
            ],
            [
              -69.0966091,
              44.4069678
            ],
            [
              -69.0925361,
              44.4024877
            ],
            [
              -69.0900929,
              44.3998068
            ],
            [
              -69.0868597,
              44.3963297
            ],
            [
              -69.0801671,
              44.3889252
            ],
            [
              -69.0780198,
              44.3865725
            ],
            [
              -69.0759737,
              44.3843726
            ],
            [
              -69.0743071,
              44.3825417
            ],
            [
              -69.0732833,
              44.3813674
            ],
            [
              -69.0704083,
              44.3782407
            ],
            [
              -69.067518,
              44.375132
            ],
            [
              -69.0660353,
              44.3733863
            ],
            [
              -69.0656472,
              44.3729634
            ]
          ]
        ]
      },
      "id": "relation/132579"
    },
    {
      "type": "Feature",
      "properties": {
        "@id": "relation/12078739",
        "admin_level": "8",
        "boundary": "administrative",
        "land_area": "administrative",
        "name": "Belfast",
        "name:mic": "Mekwasey",
        "source": "PEI open data",
        "type": "boundary"
      },
      "geometry": {
        "type": "Polygon",
        "coordinates": [
          [
            [
              -62.9024148,
              46.0723524
            ],
            [
              -62.9023504,
              46.0696579
            ],
            [
              -62.9026509,
              46.0664422
            ],
            [
              -62.9031229,
              46.0656531
            ],
            [
              -62.9036314,
              46.0639781
            ],
            [
              -62.9057833,
              46.0620921
            ],
            [
              -62.9059339,
              46.0609855
            ],
            [
              -62.9062128,
              46.0606059
            ],
            [
              -62.9059215,
              46.0593883
            ],
            [
              -62.9061956,
              46.0590901
            ],
            [
              -62.906444,
              46.0585294
            ],
            [
              -62.9065238,
              46.0583833
            ],
            [
              -62.9066196,
              46.0582372
            ],
            [
              -62.9066986,
              46.0581378
            ],
            [
              -62.9068275,
              46.0579935
            ],
            [
              -62.9071356,
              46.0576677
            ],
            [
              -62.9073187,
              46.0574879
            ],
            [
              -62.9074126,
              46.0574039
            ],
            [
              -62.9075568,
              46.0572857
            ],
            [
              -62.9079056,
              46.0570179
            ],
            [
              -62.9082614,
              46.056755
            ],
            [
              -62.9085085,
              46.0565514
            ],
            [
              -62.9087001,
              46.0563784
            ],
            [
              -62.908834,
              46.0562481
            ],
            [
              -62.9089563,
              46.0561218
            ],
            [
              -62.9091538,
              46.055906
            ],
            [
              -62.9093111,
              46.055728
            ],
            [
              -62.9094211,
              46.0555913
            ],
            [
              -62.9095649,
              46.0553998
            ],
            [
              -62.9096601,
              46.0552519
            ],
            [
              -62.90971,
              46.0551494
            ],
            [
              -62.9097444,
              46.0550424
            ],
            [
              -62.9097659,
              46.054934
            ],
            [
              -62.9097746,
              46.0547693
            ],
            [
              -62.9099991,
              46.054599
            ],
            [
              -62.9100314,
              46.0545676
            ],
            [
              -62.9101027,
              46.0544507
            ],
            [
              -62.9101351,
              46.0543742
            ],
            [
              -62.9101351,
              46.0543607
            ],
            [
              -62.9101876,
              46.0542902
            ],
            [
              -62.9082182,
              46.0543313
            ],
            [
              -62.9025272,
              46.0524253
            ],
            [
              -62.9016211,
              46.04879
            ],
            [
              -62.8999223,
              46.0481022
            ],
            [
              -62.8909135,
              46.0461371
            ],
            [
              -62.890263,
              46.0455727
            ],
            [
              -62.8873684,
              46.0446133
            ],
            [
              -62.8860211,
              46.0440463
            ],
            [
              -62.8824592,
              46.043674
            ],
            [
              -62.8823197,
              46.0429218
            ],
            [
              -62.8820407,
              46.0416111
            ],
            [
              -62.8811181,
              46.0413505
            ],
            [
              -62.8800666,
              46.0409483
            ],
            [
              -62.8788797,
              46.0403917
            ],
            [
              -62.8784162,
              46.0400982
            ],
            [
              -62.8782821,
              46.0399655
            ],
            [
              -62.8781194,
              46.0398696
            ],
            [
              -62.877818,
              46.0398191
            ],
            [
              -62.8777734,
              46.0398281
            ],
            [
              -62.8777023,
              46.039828
            ],
            [
              -62.8776055,
              46.0398144
            ],
            [
              -62.8775409,
              46.0398143
            ],
            [
              -62.8773988,
              46.0397827
            ],
            [
              -62.8773279,
              46.0397421
            ],
            [
              -62.8772182,
              46.039697
            ],
            [
              -62.877173,
              46.0396835
            ],
            [
              -62.8769598,
              46.0396833
            ],
            [
              -62.8768888,
              46.0396922
            ],
            [
              -62.876766,
              46.0397145
            ],
            [
              -62.8766839,
              46.0397369
            ],
            [
              -62.8765979,
              46.0397773
            ],
            [
              -62.8765333,
              46.0397998
            ],
            [
              -62.8764557,
              46.0398132
            ],
            [
              -62.8764105,
              46.0398266
            ],
            [
              -62.8763524,
              46.0398266
            ],
            [
              -62.8762813,
              46.0398175
            ],
            [
              -62.8762168,
              46.0397994
            ],
            [
              -62.8760748,
              46.0397498
            ],
            [
              -62.8759457,
              46.0397136
            ],
            [
              -62.8758489,
              46.0396776
            ],
            [
              -62.8757714,
              46.0396415
            ],
            [
              -62.8756895,
              46.0396221
            ],
            [
              -62.8754486,
              46.0395737
            ],
            [
              -62.8753066,
              46.0395555
            ],
            [
              -62.8751774,
              46.0395464
            ],
            [
              -62.8751064,
              46.0395328
            ],
            [
              -62.8749838,
              46.0394652
            ],
            [
              -62.8748999,
              46.0394426
            ],
            [
              -62.8747966,
              46.039429
            ],
            [
              -62.8747191,
              46.0394244
            ],
            [
              -62.8743961,
              46.0394241
            ],
            [
              -62.8743768,
              46.0394195
            ],
            [
              -62.8742211,
              46.0394194
            ],
            [
              -62.8741759,
              46.0394103
            ],
            [
              -62.8741437,
              46.0393653
            ],
            [
              -62.8741309,
              46.0393293
            ],
            [
              -62.8740987,
              46.0392735
            ],
            [
              -62.8740343,
              46.0392167
            ],
            [
              -62.8738923,
              46.0391401
            ],
            [
              -62.8738084,
              46.039131
            ],
            [
              -62.8736147,
              46.0390858
            ],
            [
              -62.8735308,
              46.0390587
            ],
            [
              -62.8732209,
              46.0389936
            ],
            [
              -62.8732859,
              46.038829
            ],
            [
              -62.8733248,
              46.0387594
            ],
            [
              -62.8733928,
              46.038674
            ],
            [
              -62.8734771,
              46.0385504
            ],
            [
              -62.8735256,
              46.0385077
            ],
            [
              -62.8735969,
              46.0384335
            ],
            [
              -62.8737198,
              46.038337
            ],
            [
              -62.8737328,
              46.03831
            ],
            [
              -62.8737271,
              46.0382605
            ],
            [
              -62.8701116,
              46.0389559
            ],
            [
              -62.8700567,
              46.0389603
            ],
            [
              -62.869934,
              46.0389602
            ],
            [
              -62.8699146,
              46.0389647
            ],
            [
              -62.8698823,
              46.0389646
            ],
            [
              -62.8697531,
              46.038987
            ],
            [
              -62.8696303,
              46.0390138
            ],
            [
              -62.8695398,
              46.0390407
            ],
            [
              -62.8694493,
              46.0390586
            ],
            [
              -62.8693007,
              46.0390719
            ],
            [
              -62.8692742,
              46.0390827
            ],
            [
              -62.8692678,
              46.0390854
            ],
            [
              -62.8692548,
              46.0390989
            ],
            [
              -62.8692612,
              46.0391259
            ],
            [
              -62.8692741,
              46.0391439
            ],
            [
              -62.8692999,
              46.0391619
            ],
            [
              -62.8693063,
              46.0391709
            ],
            [
              -62.8692353,
              46.0391798
            ],
            [
              -62.8691965,
              46.0391798
            ],
            [
              -62.8690931,
              46.0392021
            ],
            [
              -62.8689445,
              46.039202
            ],
            [
              -62.8689252,
              46.0392064
            ],
            [
              -62.8688644,
              46.0392064
            ],
            [
              -62.8687701,
              46.0392287
            ],
            [
              -62.868686,
              46.0392601
            ],
            [
              -62.8685696,
              46.039323
            ],
            [
              -62.8685114,
              46.0393499
            ],
            [
              -62.868408,
              46.0393813
            ],
            [
              -62.8683821,
              46.0393947
            ],
            [
              -62.8682529,
              46.0394351
            ],
            [
              -62.8681623,
              46.0394709
            ],
            [
              -62.8680589,
              46.0395248
            ],
            [
              -62.8679554,
              46.0395877
            ],
            [
              -62.8678261,
              46.0396415
            ],
            [
              -62.8677614,
              46.0396729
            ],
            [
              -62.867742,
              46.0396864
            ],
            [
              -62.8677355,
              46.0396864
            ],
            [
              -62.8675738,
              46.0397941
            ],
            [
              -62.8674702,
              46.0399065
            ],
            [
              -62.8673666,
              46.0399963
            ],
            [
              -62.8671725,
              46.0401265
            ],
            [
              -62.8669524,
              46.0403152
            ],
            [
              -62.8669265,
              46.0403466
            ],
            [
              -62.8668942,
              46.0403736
            ],
            [
              -62.8665966,
              46.0405397
            ],
            [
              -62.866519,
              46.0406026
            ],
            [
              -62.8664413,
              46.0406565
            ],
            [
              -62.8664219,
              46.0406654
            ],
            [
              -62.8663702,
              46.0407104
            ],
            [
              -62.8662343,
              46.0408002
            ],
            [
              -62.8662214,
              46.0408046
            ],
            [
              -62.8661437,
              46.040854
            ],
            [
              -62.8659408,
              46.0409132
            ],
            [
              -62.8658593,
              46.0409437
            ],
            [
              -62.8657106,
              46.0410155
            ],
            [
              -62.8656007,
              46.0410558
            ],
            [
              -62.8654907,
              46.0411052
            ],
            [
              -62.8653679,
              46.0411365
            ],
            [
              -62.865258,
              46.0411858
            ],
            [
              -62.8651416,
              46.0412532
            ],
            [
              -62.86487,
              46.0413608
            ],
            [
              -62.8646826,
              46.0414101
            ],
            [
              -62.8645856,
              46.0414459
            ],
            [
              -62.8644562,
              46.0415043
            ],
            [
              -62.8644304,
              46.0415087
            ],
            [
              -62.8643916,
              46.0415312
            ],
            [
              -62.8643075,
              46.0415671
            ],
            [
              -62.864204,
              46.0416254
            ],
            [
              -62.8639221,
              46.0417641
            ],
            [
              -62.8637578,
              46.0418588
            ],
            [
              -62.8635896,
              46.0419351
            ],
            [
              -62.8634797,
              46.0419619
            ],
            [
              -62.8633117,
              46.0420112
            ],
            [
              -62.8631953,
              46.042056
            ],
            [
              -62.8630466,
              46.0421053
            ],
            [
              -62.8629691,
              46.0421142
            ],
            [
              -62.8628786,
              46.0421366
            ],
            [
              -62.8627816,
              46.0421815
            ],
            [
              -62.8627234,
              46.0421994
            ],
            [
              -62.8626135,
              46.0422263
            ],
            [
              -62.862536,
              46.0422397
            ],
            [
              -62.8623614,
              46.0422979
            ],
            [
              -62.8622192,
              46.0423382
            ],
            [
              -62.8620254,
              46.0423695
            ],
            [
              -62.8619543,
              46.0423874
            ],
            [
              -62.8618573,
              46.0424053
            ],
            [
              -62.8617409,
              46.0424546
            ],
            [
              -62.8616569,
              46.0424725
            ],
            [
              -62.8616117,
              46.0424859
            ],
            [
              -62.8614566,
              46.0425082
            ],
            [
              -62.8613984,
              46.0425082
            ],
            [
              -62.8613209,
              46.0425261
            ],
            [
              -62.8612627,
              46.0425485
            ],
            [
              -62.8611721,
              46.0426023
            ],
            [
              -62.8610557,
              46.0426517
            ],
            [
              -62.8610169,
              46.0426741
            ],
            [
              -62.8609135,
              46.0427145
            ],
            [
              -62.8607388,
              46.0427952
            ],
            [
              -62.8606613,
              46.0428221
            ],
            [
              -62.860616,
              46.0428446
            ],
            [
              -62.8604348,
              46.0429613
            ],
            [
              -62.8603637,
              46.0429972
            ],
            [
              -62.8603378,
              46.0430062
            ],
            [
              -62.8602408,
              46.04306
            ],
            [
              -62.8602149,
              46.043069
            ],
            [
              -62.8601632,
              46.0430959
            ],
            [
              -62.8601244,
              46.0431094
            ],
            [
              -62.8600662,
              46.0431363
            ],
            [
              -62.8599433,
              46.0431811
            ],
            [
              -62.8597752,
              46.0432709
            ],
            [
              -62.8597363,
              46.0432978
            ],
            [
              -62.8597234,
              46.0433113
            ],
            [
              -62.8595746,
              46.0433741
            ],
            [
              -62.8594453,
              46.0434189
            ],
            [
              -62.8592578,
              46.0435041
            ],
            [
              -62.8591479,
              46.0435445
            ],
            [
              -62.8590664,
              46.0435831
            ],
            [
              -62.8587598,
              46.0437554
            ],
            [
              -62.8585592,
              46.0438811
            ],
            [
              -62.8584622,
              46.0439125
            ],
            [
              -62.8582987,
              46.0439582
            ],
            [
              -62.8581196,
              46.04402
            ],
            [
              -62.8580937,
              46.0440245
            ],
            [
              -62.8580161,
              46.0440514
            ],
            [
              -62.857777,
              46.0441095
            ],
            [
              -62.8576283,
              46.0441543
            ],
            [
              -62.857583,
              46.0441633
            ],
            [
              -62.8575443,
              46.0441632
            ],
            [
              -62.8574732,
              46.0441721
            ],
            [
              -62.8573918,
              46.0441887
            ],
            [
              -62.8573246,
              46.0442034
            ],
            [
              -62.8572017,
              46.0442393
            ],
            [
              -62.8568139,
              46.0443287
            ],
            [
              -62.8566505,
              46.0443402
            ],
            [
              -62.8564586,
              46.0443598
            ],
            [
              -62.8562582,
              46.0443955
            ],
            [
              -62.8561768,
              46.0444022
            ],
            [
              -62.8559978,
              46.044428
            ],
            [
              -62.8558963,
              46.044449
            ],
            [
              -62.8557981,
              46.0444646
            ],
            [
              -62.8589716,
              46.0505395
            ],
            [
              -62.8583642,
              46.0508351
            ],
            [
              -62.8580086,
              46.0509674
            ],
            [
              -62.8577758,
              46.0510413
            ],
            [
              -62.8570065,
              46.0512383
            ],
            [
              -62.856179,
              46.0514599
            ],
            [
              -62.8561272,
              46.0514756
            ],
            [
              -62.8560852,
              46.0514935
            ],
            [
              -62.8560464,
              46.0515002
            ],
            [
              -62.8560109,
              46.0514979
            ],
            [
              -62.8557426,
              46.0515673
            ],
            [
              -62.8546404,
              46.0518358
            ],
            [
              -62.8540714,
              46.0519857
            ],
            [
              -62.8533848,
              46.0521702
            ],
            [
              -62.8537916,
              46.0527388
            ],
            [
              -62.8542229,
              46.0533197
            ],
            [
              -62.8549215,
              46.0542517
            ],
            [
              -62.8550148,
              46.0543688
            ],
            [
              -62.8559362,
              46.0556011
            ],
            [
              -62.8639756,
              46.0537735
            ],
            [
              -62.8655747,
              46.0569166
            ],
            [
              -62.8657952,
              46.0568494
            ],
            [
              -62.8660797,
              46.0567462
            ],
            [
              -62.8662156,
              46.0566879
            ],
            [
              -62.8663126,
              46.056652
            ],
            [
              -62.8666358,
              46.0566029
            ],
            [
              -62.8668557,
              46.0565042
            ],
            [
              -62.8670238,
              46.056446
            ],
            [
              -62.8672306,
              46.0564102
            ],
            [
              -62.8674504,
              46.056361
            ],
            [
              -62.8676962,
              46.0562803
            ],
            [
              -62.8679011,
              46.0562342
            ],
            [
              -62.8695299,
              46.0584308
            ],
            [
              -62.8601956,
              46.0610561
            ],
            [
              -62.8602858,
              46.0611637
            ],
            [
              -62.8610967,
              46.0621786
            ],
            [
              -62.8613029,
              46.0624267
            ],
            [
              -62.8614008,
              46.0625559
            ],
            [
              -62.8624752,
              46.0638919
            ],
            [
              -62.8625397,
              46.0639617
            ],
            [
              -62.8626234,
              46.064081
            ],
            [
              -62.8631677,
              46.0647924
            ],
            [
              -62.8633377,
              46.0650076
            ],
            [
              -62.8617249,
              46.0654838
            ],
            [
              -62.8604055,
              46.0656598
            ],
            [
              -62.8601286,
              46.065278
            ],
            [
              -62.8566028,
              46.0660406
            ],
            [
              -62.8564695,
              46.0658699
            ],
            [
              -62.8538858,
              46.0663884
            ],
            [
              -62.855517,
              46.0690148
            ],
            [
              -62.8520031,
              46.0695865
            ],
            [
              -62.8537007,
              46.0737428
            ],
            [
              -62.8541116,
              46.0747644
            ],
            [
              -62.8535587,
              46.0748735
            ],
            [
              -62.8540082,
              46.0759712
            ],
            [
              -62.8569362,
              46.0833889
            ],
            [
              -62.8671548,
              46.0815809
            ],
            [
              -62.8672273,
              46.0815599
            ],
            [
              -62.8672726,
              46.0815374
            ],
            [
              -62.8673242,
              46.081569
            ],
            [
              -62.8674056,
              46.0815902
            ],
            [
              -62.8674599,
              46.0816096
            ],
            [
              -62.8675309,
              46.0816412
            ],
            [
              -62.8676343,
              46.0816593
            ],
            [
              -62.8678216,
              46.0817135
            ],
            [
              -62.8679185,
              46.0817316
            ],
            [
              -62.8681034,
              46.081739
            ],
            [
              -62.8681447,
              46.0817454
            ],
            [
              -62.8687653,
              46.0817506
            ],
            [
              -62.8689075,
              46.0817418
            ],
            [
              -62.8689269,
              46.0817373
            ],
            [
              -62.8691984,
              46.0817376
            ],
            [
              -62.8692695,
              46.0817287
            ],
            [
              -62.8693989,
              46.0816929
            ],
            [
              -62.8696187,
              46.0816571
            ],
            [
              -62.8697675,
              46.0816393
            ],
            [
              -62.8698903,
              46.0816304
            ],
            [
              -62.8699873,
              46.0816171
            ],
            [
              -62.8700972,
              46.0815947
            ],
            [
              -62.8701684,
              46.0815723
            ],
            [
              -62.8704337,
              46.0814556
            ],
            [
              -62.8706795,
              46.081375
            ],
            [
              -62.8707765,
              46.0813526
            ],
            [
              -62.8709059,
              46.0813077
            ],
            [
              -62.8711129,
              46.081263
            ],
            [
              -62.8712034,
              46.0812316
            ],
            [
              -62.8712617,
              46.0812092
            ],
            [
              -62.8713652,
              46.0811508
            ],
            [
              -62.8715529,
              46.0810746
            ],
            [
              -62.8717469,
              46.0810073
            ],
            [
              -62.8718505,
              46.0809624
            ],
            [
              -62.8719411,
              46.0809176
            ],
            [
              -62.8721223,
              46.0808188
            ],
            [
              -62.8722323,
              46.0807695
            ],
            [
              -62.8724395,
              46.0806212
            ],
            [
              -62.8726078,
              46.080518
            ],
            [
              -62.872679,
              46.0804821
            ],
            [
              -62.8727372,
              46.0804596
            ],
            [
              -62.8727631,
              46.0804552
            ],
            [
              -62.8728407,
              46.0804283
            ],
            [
              -62.8728666,
              46.0804283
            ],
            [
              -62.8728859,
              46.0804328
            ],
            [
              -62.8729053,
              46.0804283
            ],
            [
              -62.8729312,
              46.0804284
            ],
            [
              -62.8729765,
              46.0804194
            ],
            [
              -62.8731253,
              46.0803701
            ],
            [
              -62.8732611,
              46.0803343
            ],
            [
              -62.8733646,
              46.0802984
            ],
            [
              -62.8734616,
              46.0802715
            ],
            [
              -62.8736724,
              46.0802295
            ],
            [
              -62.8737914,
              46.0802134
            ],
            [
              -62.8739983,
              46.0802092
            ],
            [
              -62.8743416,
              46.0801825
            ],
            [
              -62.8745549,
              46.0801558
            ],
            [
              -62.8746842,
              46.0801469
            ],
            [
              -62.8748717,
              46.0801157
            ],
            [
              -62.8750981,
              46.0800844
            ],
            [
              -62.8753889,
              46.0800847
            ],
            [
              -62.8754193,
              46.0800906
            ],
            [
              -62.8752588,
              46.0798835
            ],
            [
              -62.8766218,
              46.0796902
            ],
            [
              -62.8769477,
              46.0796479
            ],
            [
              -62.8772678,
              46.0795965
            ],
            [
              -62.8774262,
              46.0795674
            ],
            [
              -62.8777431,
              46.079498
            ],
            [
              -62.8780542,
              46.0794156
            ],
            [
              -62.8783355,
              46.079348
            ],
            [
              -62.8788672,
              46.0793024
            ],
            [
              -62.8791955,
              46.0801096
            ],
            [
              -62.8792278,
              46.0801204
            ],
            [
              -62.8792988,
              46.0801295
            ],
            [
              -62.8794152,
              46.0801296
            ],
            [
              -62.8796608,
              46.0801209
            ],
            [
              -62.8797514,
              46.080103
            ],
            [
              -62.8798613,
              46.0800896
            ],
            [
              -62.8800681,
              46.0800898
            ],
            [
              -62.8801392,
              46.0801079
            ],
            [
              -62.8803782,
              46.0801801
            ],
            [
              -62.8806302,
              46.0802253
            ],
            [
              -62.8807077,
              46.0802344
            ],
            [
              -62.8809211,
              46.0802346
            ],
            [
              -62.8810374,
              46.0802393
            ],
            [
              -62.881296,
              46.080208
            ],
            [
              -62.8813736,
              46.0801811
            ],
            [
              -62.8814643,
              46.0801318
            ],
            [
              -62.8815458,
              46.0801008
            ],
            [
              -62.881613,
              46.0800824
            ],
            [
              -62.8817488,
              46.0800646
            ],
            [
              -62.8818264,
              46.0800647
            ],
            [
              -62.8818458,
              46.0800602
            ],
            [
              -62.8819815,
              46.0800603
            ],
            [
              -62.8821369,
              46.080065
            ],
            [
              -62.8822142,
              46.0800516
            ],
            [
              -62.8822336,
              46.0800516
            ],
            [
              -62.8823048,
              46.0800337
            ],
            [
              -62.8823436,
              46.0800292
            ],
            [
              -62.8824276,
              46.0800113
            ],
            [
              -62.8825505,
              46.0799799
            ],
            [
              -62.882654,
              46.0799666
            ],
            [
              -62.8829126,
              46.0799128
            ],
            [
              -62.8830031,
              46.0799129
            ],
            [
              -62.8830225,
              46.0799085
            ],
            [
              -62.8830742,
              46.0799085
            ],
            [
              -62.8830872,
              46.0798995
            ],
            [
              -62.8830872,
              46.079886
            ],
            [
              -62.8830937,
              46.079877
            ],
            [
              -62.8831261,
              46.0798501
            ],
            [
              -62.8832296,
              46.0798142
            ],
            [
              -62.8833783,
              46.0797784
            ],
            [
              -62.8836176,
              46.0797336
            ],
            [
              -62.8836887,
              46.0797247
            ],
            [
              -62.8838762,
              46.0797114
            ],
            [
              -62.8838956,
              46.0797069
            ],
            [
              -62.8840507,
              46.0797071
            ],
            [
              -62.8840895,
              46.0797251
            ],
            [
              -62.8841539,
              46.0798242
            ],
            [
              -62.8841861,
              46.0798512
            ],
            [
              -62.8841991,
              46.0798557
            ],
            [
              -62.8842185,
              46.0798467
            ],
            [
              -62.8842961,
              46.0798243
            ],
            [
              -62.8868155,
              46.0798524
            ],
            [
              -62.8896938,
              46.0782732
            ],
            [
              -62.8941171,
              46.0758929
            ],
            [
              -62.8968491,
              46.0740767
            ],
            [
              -62.9024148,
              46.0723524
            ]
          ]
        ]
      },
      "id": "relation/12078739"
    },
    {
      "type": "Feature",
      "properties": {
        "@id": "node/158823967",
        "@relations": [
          {
            "role": "label",
            "rel": 132579,
            "reltags": {
              "admin_level": "8",
              "border_type": "city",
              "boundary": "administrative",
              "gnis:feature_id": "582347",
              "name": "Belfast",
              "population": "7069",
              "population:date": "2023",
              "source": "TIGER/Line® 2008 Place Shapefiles (http://www.census.gov/geo/www/tiger/)",
              "source:population": "Census",
              "type": "boundary",
              "wikidata": "Q2075675",
              "wikipedia": "en:Belfast, Maine"
            }
          }
        ]
      },
      "geometry": {
        "type": "Point",
        "coordinates": [
          -69.0065207,
          44.4261759
        ]
      },
      "id": "node/158823967"
    },
    {
      "type": "Feature",
      "properties": {
        "@id": "node/2184634461",
        "@relations": [
          {
            "role": "label",
            "rel": 12078739,
            "reltags": {
              "admin_level": "8",
              "boundary": "administrative",
              "land_area": "administrative",
              "name": "Belfast",
              "name:mic": "Mekwasey",
              "source": "PEI open data",
              "type": "boundary"
            }
          }
        ]
      },
      "geometry": {
        "type": "Point",
        "coordinates": [
          -62.8783952,
          46.0785753
        ]
      },
      "id": "node/2184634461"
    }
  ]
}